{"type":"FeatureCollection", "features": [
{"type":"Feature","geometry":{"type":"Polygon","coordinates":[[[134.8671,35.6581],[134.8725,35.6197],[134.8542,35.5881],[134.9143,35.5448],[134.9265,35.5125],[134.9959,35.5353],[135.0367,35.5373],[135.0504,35.4419],[134.9997,35.3867],[134.9448,35.4132],[134.923,35.3943],[134.9208,35.3163],[135.0095,35.2837],[135.0566,35.258],[135.109,35.2663],[135.1613,35.2574],[135.1556,35.2262],[135.2327,35.1774],[135.2738,35.1771],[135.2946,35.1419],[135.3405,35.1499],[135.393,35.1109],[135.3992,35.0761],[135.3708,35.0453],[135.3821,35.0101],[135.4361,35.0083],[135.4928,34.9877],[135.481,34.9495],[135.5507,34.9179],[135.5707,34.9674],[135.6129,34.9713],[135.6117,34.9421],[135.6749,34.8987],[135.6905,34.8561],[135.7447,34.8043],[135.7284,34.7779],[135.7545,34.7279],[135.8208,34.7119],[135.89,34.7087],[135.9156,34.7532],[135.955,34.7477],[136.014,34.7077],[136.0552,34.7384],[136.0285,34.7572],[136.0218,34.7915],[136.0272,34.8218],[136.0015,34.8449],[135.9707,34.8384],[135.9414,34.8631],[135.898,34.8712],[135.8625,34.9029],[135.8788,34.9341],[135.815,35.0461],[135.8514,35.131],[135.8291,35.2207],[135.8446,35.2607],[135.7684,35.3561],[135.7007,35.3437],[135.6419,35.3668],[135.534,35.3775],[135.5253,35.4207],[135.4588,35.4725],[135.4743,35.507],[135.449,35.5235],[135.4865,35.558],[135.4521,35.5675],[135.4012,35.5615],[135.3359,35.5339],[135.334,35.5061],[135.2881,35.5163],[135.2369,35.5458],[135.1873,35.5587],[135.2443,35.6205],[135.268,35.6674],[135.2998,35.6817],[135.2872,35.7259],[135.2213,35.7719],[135.0857,35.7398],[135.0817,35.7235],[135.0222,35.6895],[134.9849,35.6923],[134.9659,35.6655],[134.9233,35.6465],[134.8671,35.6581]]]},"properties":{"nam":"Kyoto Fu","nam_ja":"京都府","id":26}},
{"type":"Feature","geometry":{"type":"Polygon","coordinates":[[[130.0387,33.4697],[129.9968,33.4467],[129.9612,33.4586],[129.9435,33.4935],[129.9678,33.5132],[129.8958,33.5494],[129.8603,33.5421],[129.839,33.4947],[129.7828,33.4541],[129.8304,33.4139],[129.8641,33.4082],[129.8697,33.3883],[129.8528,33.3643],[129.8313,33.3038],[129.7899,33.3403],[129.7588,33.2903],[129.8106,33.2425],[129.818,33.1835],[129.8877,33.1563],[129.9377,33.1651],[129.9504,33.1099],[129.9389,33.0727],[129.9825,33.0564],[130.0087,33.019],[130.0857,32.9748],[130.2027,32.9569],[130.2206,32.9751],[130.1913,32.9994],[130.1277,33.1085],[130.149,33.1127],[130.2217,33.1653],[130.2465,33.1923],[130.2878,33.1469],[130.3549,33.1404],[130.3386,33.2033],[130.3766,33.2204],[130.388,33.2549],[130.4396,33.2649],[130.4579,33.3037],[130.482,33.3049],[130.541,33.3663],[130.5401,33.4199],[130.5116,33.4493],[130.4751,33.4375],[130.4294,33.3974],[130.3953,33.4273],[130.3555,33.4335],[130.2766,33.4783],[130.2468,33.4707],[130.198,33.4811],[130.1839,33.4675],[130.0387,33.4697]]]},"properties":{"nam":"Saga Ken","nam_ja":"佐賀県","id":41}},
{"type":"Feature","geometry":{"type":"MultiPolygon","coordinates":[[[[131.3286,32.8329],[131.2632,32.8791],[131.246,32.9408],[131.2628,32.9762],[131.2256,33.0194],[131.2145,33.055],[131.1736,33.0834],[131.1597,33.1409],[131.1148,33.1801],[131.0383,33.1943],[130.9916,33.1833],[130.9776,33.1405],[131.0231,33.0874],[131.0106,33.0426],[130.9693,33.0237],[130.9491,33.0509],[130.915,33.0541],[130.8863,33.0865],[130.8389,33.1039],[130.7708,33.1245],[130.7221,33.1517],[130.6668,33.1571],[130.6588,33.1157],[130.5797,33.1157],[130.565,33.0872],[130.4942,33.0494],[130.5036,33.0045],[130.4132,33.0029],[130.429,32.9873],[130.4419,32.9262],[130.5268,32.8782],[130.5229,32.8517],[130.564,32.8419],[130.6007,32.8106],[130.6075,32.7129],[130.5664,32.6988],[130.5355,32.6647],[130.4504,32.6231],[130.4864,32.6125],[130.615,32.6313],[130.6083,32.5934],[130.5615,32.5377],[130.5415,32.4953],[130.5732,32.4341],[130.5114,32.3906],[130.4804,32.3412],[130.4665,32.2846],[130.4342,32.2685],[130.3722,32.2035],[130.36,32.1678],[130.4035,32.1197],[130.4748,32.1221],[130.5046,32.1405],[130.6218,32.1558],[130.7197,32.1006],[130.8565,32.0995],[130.9125,32.1306],[130.9328,32.1162],[130.9736,32.1216],[131.0025,32.1693],[131.0963,32.1528],[131.0997,32.2014],[131.0462,32.244],[131.1105,32.3285],[131.0735,32.3575],[131.0665,32.4074],[131.019,32.4395],[131.0062,32.4925],[131.0537,32.5877],[131.0991,32.5785],[131.1193,32.6057],[131.114,32.6388],[131.1788,32.7111],[131.2312,32.7441],[131.2468,32.8006],[131.2649,32.8262],[131.3286,32.8329]]],[[[130.4223,32.5461],[130.446,32.5568],[130.4406,32.6255],[130.4118,32.6084],[130.4223,32.5461]]],[[[130.3533,32.4048],[130.3831,32.3876],[130.4126,32.4217],[130.4564,32.5185],[130.317,32.5174],[130.2876,32.4868],[130.2039,32.451],[130.185,32.5476],[130.1204,32.5467],[130.0434,32.5124],[130.0355,32.4643],[130.0058,32.4278],[129.9745,32.3535],[129.9943,32.3065],[129.983,32.246],[130.0214,32.1926],[130.0726,32.2107],[130.101,32.2369],[130.1398,32.3086],[130.1811,32.3112],[130.2236,32.3692],[130.1974,32.4051],[130.2188,32.4239],[130.3077,32.3962],[130.3533,32.4048]]]]},"properties":{"nam":"Kumamoto Ken","nam_ja":"熊本県","id":43}},
{"type":"Feature","geometry":{"type":"MultiPolygon","coordinates":[[[[134.332,34.5631],[134.3028,34.5488],[134.2576,34.5493],[134.2367,34.529],[134.1823,34.5158],[134.144,34.4783],[134.2277,34.4805],[134.2413,34.4581],[134.2967,34.4798],[134.3294,34.4455],[134.3595,34.5301],[134.332,34.5631]]],[[[134.0795,34.4598],[134.0819,34.4999],[134.0381,34.4783],[134.0795,34.4598]]],[[[133.679,34.0124],[133.7825,34.08],[133.8536,34.1037],[133.9214,34.1142],[133.9467,34.0921],[134.0005,34.0749],[134.0503,34.1179],[134.1218,34.1187],[134.1456,34.1649],[134.2594,34.1833],[134.2963,34.1699],[134.3585,34.1839],[134.4184,34.1575],[134.4397,34.2079],[134.4075,34.2246],[134.3915,34.2532],[134.3379,34.2562],[134.3053,34.2778],[134.262,34.2829],[134.2553,34.3474],[134.1534,34.3426],[134.1632,34.3752],[134.1318,34.3997],[134.0825,34.3491],[133.9968,34.3546],[133.9759,34.3733],[133.8884,34.374],[133.894,34.3542],[133.8223,34.3255],[133.698,34.2341],[133.6218,34.2355],[133.6477,34.1853],[133.6269,34.0529],[133.5979,34.0436],[133.679,34.0124]]]]},"properties":{"nam":"Kagawa Ken","nam_ja":"香川県","id":37}},
{"type":"Feature","geometry":{"type":"Polygon","coordinates":[[[137.5618,35.2893],[137.4422,35.2337],[137.3892,35.24],[137.3718,35.2631],[137.3046,35.29],[137.2224,35.2557],[137.1778,35.2591],[137.1652,35.2825],[137.096,35.2907],[137.0462,35.3397],[137.049,35.358],[136.963,35.4199],[136.9611,35.3993],[136.8338,35.3559],[136.7703,35.3687],[136.7252,35.2955],[136.6777,35.241],[136.6725,35.1347],[136.7509,35.0772],[136.7704,35.0214],[136.7938,35.0149],[136.8689,35.0417],[136.8283,34.9611],[136.8211,34.8837],[136.8571,34.8624],[136.8663,34.8365],[136.8415,34.7629],[136.8718,34.7315],[136.9487,34.6999],[136.9631,34.7347],[136.9143,34.7709],[136.9295,34.8485],[136.9968,34.8161],[137.0273,34.7773],[137.116,34.7895],[137.1871,34.7895],[137.2245,34.8192],[137.2509,34.8055],[137.3112,34.8037],[137.3203,34.7326],[137.2847,34.7309],[137.2585,34.6962],[137.1443,34.6536],[137.1185,34.6348],[137.057,34.6491],[137.0238,34.5865],[137.1443,34.5904],[137.3411,34.6476],[137.4839,34.6738],[137.491,34.7001],[137.4756,34.7471],[137.4868,34.8114],[137.502,34.8328],[137.6398,34.8921],[137.6508,34.9318],[137.6883,34.9563],[137.7172,35.035],[137.7746,35.0771],[137.7987,35.1254],[137.8285,35.1537],[137.8084,35.1763],[137.838,35.2125],[137.7797,35.2032],[137.7597,35.2215],[137.7056,35.2336],[137.5774,35.1993],[137.5528,35.2401],[137.5618,35.2893]]]},"properties":{"nam":"Aichi Ken","nam_ja":"愛知県","id":23}},
{"type":"Feature","geometry":{"type":"Polygon","coordinates":[[[140.2643,36.9334],[140.2408,37.0005],[140.2046,37.024],[140.1941,37.0641],[140.1378,37.1064],[140.1007,37.1227],[139.9549,37.155],[139.8977,37.1536],[139.831,37.1324],[139.8207,37.0865],[139.7724,37.0865],[139.7529,37.0711],[139.6735,37.0579],[139.6192,37.0173],[139.4947,36.9682],[139.4599,36.9697],[139.4285,36.925],[139.3934,36.9109],[139.3564,36.8781],[139.3664,36.8414],[139.4049,36.8254],[139.3531,36.7737],[139.3669,36.7257],[139.337,36.6921],[139.3309,36.6272],[139.355,36.6145],[139.4711,36.602],[139.4827,36.5783],[139.4192,36.5009],[139.4351,36.4642],[139.4109,36.4493],[139.3611,36.3838],[139.418,36.3365],[139.4157,36.316],[139.4644,36.2715],[139.5266,36.2846],[139.563,36.267],[139.6341,36.2701],[139.6648,36.2072],[139.6879,36.1998],[139.7272,36.206],[139.8217,36.2398],[139.8487,36.3113],[139.9645,36.3509],[139.9791,36.3703],[140.0449,36.3751],[140.1101,36.4075],[140.1443,36.4141],[140.1853,36.3983],[140.2024,36.4199],[140.2135,36.473],[140.2488,36.5329],[140.248,36.5973],[140.2321,36.7001],[140.2885,36.7174],[140.2568,36.7572],[140.267,36.8236],[140.2525,36.8505],[140.2489,36.9199],[140.2643,36.9334]]]},"properties":{"nam":"Tochigi Ken","nam_ja":"栃木県","id":9}},
{"type":"Feature","geometry":{"type":"Polygon","coordinates":[[[138.7288,35.9093],[138.6854,35.8933],[138.6761,35.8699],[138.6105,35.8742],[138.6055,35.9087],[138.5093,35.922],[138.4901,35.8964],[138.4544,35.9003],[138.4403,35.9523],[138.3703,35.9715],[138.2922,35.8667],[138.2483,35.8859],[138.1855,35.7949],[138.2356,35.7575],[138.1803,35.7128],[138.2186,35.6445],[138.2594,35.5519],[138.2562,35.3186],[138.2856,35.3046],[138.3283,35.3275],[138.3724,35.2994],[138.3673,35.2721],[138.3986,35.2003],[138.4292,35.1819],[138.4916,35.1685],[138.5322,35.2234],[138.5146,35.2632],[138.5125,35.3141],[138.5349,35.3306],[138.5316,35.4062],[138.5778,35.4419],[138.6096,35.3932],[138.6635,35.3983],[138.6804,35.3577],[138.8718,35.3818],[138.9162,35.4005],[138.928,35.4368],[138.9543,35.4599],[139.0266,35.4808],[139.0852,35.5121],[139.1291,35.5637],[139.1343,35.6163],[139.1178,35.6531],[139.131,35.6718],[139.0256,35.7193],[138.9837,35.7695],[138.9638,35.8293],[138.944,35.8547],[138.8929,35.8399],[138.8463,35.8672],[138.793,35.8751],[138.7782,35.9001],[138.7288,35.9093]]]},"properties":{"nam":"Yamanashi Ken","nam_ja":"山梨県","id":19}},
{"type":"Feature","geometry":{"type":"Polygon","coordinates":[[[136.2806,35.6587],[136.2647,35.6705],[136.15,35.6978],[136.1342,35.6699],[136.1767,35.5961],[136.1632,35.5707],[136.1123,35.5755],[136.1051,35.5288],[136.0261,35.5296],[136.0059,35.4916],[135.9815,35.4868],[135.9398,35.5204],[135.8904,35.4038],[135.812,35.4117],[135.8071,35.3853],[135.7684,35.3561],[135.8446,35.2607],[135.8291,35.2207],[135.8514,35.131],[135.815,35.0461],[135.8788,34.9341],[135.8625,34.9029],[135.898,34.8712],[135.9414,34.8631],[135.9707,34.8384],[136.0015,34.8449],[136.0272,34.8218],[136.0218,34.7915],[136.0881,34.8113],[136.1073,34.8519],[136.0857,34.8857],[136.1653,34.8878],[136.2503,34.8578],[136.3571,34.9005],[136.373,34.9418],[136.4143,34.9796],[136.4182,35.0484],[136.4382,35.0652],[136.436,35.1301],[136.4543,35.1616],[136.4083,35.1872],[136.4149,35.2177],[136.3931,35.2532],[136.3908,35.2878],[136.4108,35.3138],[136.4152,35.3735],[136.4441,35.3895],[136.4115,35.4186],[136.4255,35.4477],[136.3876,35.4956],[136.4002,35.5299],[136.3178,35.5469],[136.3154,35.6233],[136.2887,35.6203],[136.2806,35.6587]]]},"properties":{"nam":"Shiga Ken","nam_ja":"滋賀県","id":25}},
{"type":"Feature","geometry":{"type":"Polygon","coordinates":[[[138.6957,36.7386],[138.5434,36.7039],[138.5198,36.6889],[138.5252,36.6515],[138.458,36.6333],[138.4274,36.5961],[138.4285,36.5556],[138.4039,36.5209],[138.4009,36.4347],[138.4898,36.4016],[138.5334,36.4023],[138.5922,36.4245],[138.6481,36.4083],[138.6535,36.3031],[138.6004,36.2785],[138.6031,36.2479],[138.6347,36.2056],[138.637,36.1745],[138.5875,36.1605],[138.598,36.1381],[138.6346,36.1336],[138.6306,36.0913],[138.6438,36.0507],[138.6314,36.0283],[138.7127,35.9853],[138.755,36.0346],[138.8285,36.0373],[138.8474,36.0671],[138.904,36.0918],[138.9312,36.0883],[139.016,36.1338],[139.037,36.1263],[139.0576,36.1837],[139.1078,36.2532],[139.1639,36.279],[139.2381,36.2461],[139.268,36.2504],[139.3235,36.2297],[139.3471,36.2532],[139.3771,36.2441],[139.4442,36.1969],[139.5258,36.1913],[139.5879,36.2104],[139.6281,36.1946],[139.6648,36.2072],[139.6341,36.2701],[139.563,36.267],[139.5266,36.2846],[139.4644,36.2715],[139.4157,36.316],[139.418,36.3365],[139.3611,36.3838],[139.4109,36.4493],[139.4351,36.4642],[139.4192,36.5009],[139.4827,36.5783],[139.4711,36.602],[139.355,36.6145],[139.3309,36.6272],[139.337,36.6921],[139.3669,36.7257],[139.3531,36.7737],[139.4049,36.8254],[139.3664,36.8414],[139.3564,36.8781],[139.3934,36.9109],[139.232,36.9406],[139.1803,36.9647],[139.1792,36.9914],[139.097,37.0588],[139.0902,37.0196],[139.047,36.9875],[138.9697,36.9815],[138.9677,36.9302],[138.979,36.8911],[138.9321,36.8937],[138.9162,36.851],[138.8549,36.8119],[138.8215,36.8171],[138.8261,36.7717],[138.7672,36.7466],[138.7263,36.7638],[138.6957,36.7386]]]},"properties":{"nam":"Gunma Ken","nam_ja":"群馬県","id":10}},
{"type":"Feature","geometry":{"type":"Polygon","coordinates":[[[141.6322,38.971],[141.5681,38.9957],[141.491,38.9985],[141.4894,38.9075],[141.4514,38.8767],[141.4537,38.8116],[141.4223,38.7803],[141.3531,38.8128],[141.3079,38.8203],[141.2736,38.7969],[141.2575,38.7629],[141.1397,38.79],[141.1424,38.8111],[141.1039,38.8287],[141.1463,38.8559],[141.1401,38.8779],[141.0939,38.8881],[140.9918,38.8755],[140.9407,38.916],[140.9158,38.9172],[140.8262,38.9635],[140.7739,38.9585],[140.7468,38.9569],[140.7161,38.9273],[140.6439,38.8879],[140.5539,38.8775],[140.5473,38.8895],[140.5411,38.8618],[140.5912,38.8353],[140.6053,38.7833],[140.6463,38.7688],[140.6074,38.7207],[140.6189,38.673],[140.5884,38.6343],[140.538,38.6341],[140.5789,38.5685],[140.5601,38.5425],[140.5739,38.4958],[140.6134,38.4538],[140.5807,38.4376],[140.5783,38.3931],[140.5218,38.35],[140.5299,38.3248],[140.4927,38.302],[140.4714,38.2697],[140.4795,38.1807],[140.4293,38.1257],[140.4211,38.0865],[140.3726,38.0573],[140.3027,38.0539],[140.2762,38.0351],[140.2801,37.9769],[140.3461,37.9513],[140.387,37.9675],[140.475,37.947],[140.4882,37.8999],[140.5624,37.9114],[140.6613,37.9007],[140.6926,37.8589],[140.6945,37.8035],[140.7771,37.7813],[140.8526,37.7958],[140.8567,37.8913],[140.9006,37.9037],[140.9312,37.8963],[140.9152,37.9814],[140.9281,38.0865],[140.9654,38.1849],[141.0299,38.2757],[141.0628,38.3697],[141.0854,38.3814],[141.1606,38.3653],[141.2074,38.392],[141.2977,38.4145],[141.3589,38.4138],[141.3661,38.3898],[141.4114,38.3967],[141.4646,38.3391],[141.468,38.3064],[141.5083,38.2984],[141.5405,38.317],[141.5141,38.3931],[141.4752,38.4199],[141.4966,38.4405],[141.4851,38.5103],[141.5464,38.5226],[141.4673,38.5614],[141.5251,38.6106],[141.5294,38.6374],[141.4637,38.6477],[141.4823,38.6749],[141.5465,38.7118],[141.5165,38.7718],[141.522,38.7891],[141.5917,38.8228],[141.583,38.8522],[141.6055,38.8803],[141.6617,38.8969],[141.6322,38.971]]]},"properties":{"nam":"Miyagi Ken","nam_ja":"宮城県","id":4}},
{"type":"Feature","geometry":{"type":"Polygon","coordinates":[[[138.2186,35.6445],[138.1899,35.5787],[138.1381,35.5219],[138.1599,35.4882],[138.1552,35.4589],[138.1193,35.4479],[138.1521,35.3981],[138.1419,35.3707],[138.0717,35.3465],[137.9672,35.2833],[137.9305,35.2757],[137.8824,35.2481],[137.8718,35.2188],[137.838,35.2125],[137.8084,35.1763],[137.8285,35.1537],[137.7987,35.1254],[137.7746,35.0771],[137.7172,35.035],[137.6883,34.9563],[137.6508,34.9318],[137.6398,34.8921],[137.502,34.8328],[137.4868,34.8114],[137.4756,34.7471],[137.491,34.7001],[137.4839,34.6738],[137.5855,34.6789],[137.6782,34.6699],[137.7986,34.6447],[137.9115,34.667],[137.9605,34.6662],[138.0781,34.6422],[138.1931,34.6001],[138.1976,34.6699],[138.2195,34.7173],[138.2949,34.7667],[138.3387,34.8326],[138.3258,34.866],[138.3573,34.9151],[138.5148,34.9835],[138.5332,35.0131],[138.4947,35.0217],[138.533,35.0553],[138.5737,35.1102],[138.6393,35.1149],[138.6977,35.1367],[138.7525,35.1311],[138.8278,35.107],[138.8718,35.0708],[138.8827,35.0247],[138.8456,35.0139],[138.7868,35.0239],[138.7632,34.9751],[138.7897,34.908],[138.7561,34.8845],[138.7753,34.8563],[138.7524,34.8227],[138.7757,34.7641],[138.7417,34.7227],[138.794,34.6225],[138.8436,34.6011],[138.9048,34.6289],[138.9363,34.6594],[138.9786,34.6539],[138.9734,34.6907],[139.0063,34.7525],[139.0583,34.7848],[139.0779,34.8429],[139.1314,34.8789],[139.1462,34.9534],[139.0957,34.9756],[139.0995,35.0461],[139.0739,35.0468],[139.0746,35.0927],[139.1115,35.1413],[139.0305,35.1497],[139.0286,35.1699],[138.9876,35.2012],[138.9752,35.2617],[139.0048,35.2897],[139.0187,35.3298],[138.9954,35.4031],[138.9162,35.4005],[138.8718,35.3818],[138.6804,35.3577],[138.6635,35.3983],[138.6096,35.3932],[138.5778,35.4419],[138.5316,35.4062],[138.5349,35.3306],[138.5125,35.3141],[138.5146,35.2632],[138.5322,35.2234],[138.4916,35.1685],[138.4292,35.1819],[138.3986,35.2003],[138.3673,35.2721],[138.3724,35.2994],[138.3283,35.3275],[138.2856,35.3046],[138.2562,35.3186],[138.2594,35.5519],[138.2186,35.6445]]]},"properties":{"nam":"Shizuoka Ken","nam_ja":"静岡県","id":22}},
{"type":"Feature","geometry":{"type":"Polygon","coordinates":[[[140.7936,36.8596],[140.6955,36.8883],[140.5674,36.9139],[140.5926,36.8813],[140.5394,36.8592],[140.5172,36.8279],[140.4637,36.7918],[140.4385,36.8216],[140.3773,36.838],[140.3631,36.8851],[140.3257,36.8928],[140.2941,36.9319],[140.2643,36.9334],[140.2489,36.9199],[140.2525,36.8505],[140.267,36.8236],[140.2568,36.7572],[140.2885,36.7174],[140.2321,36.7001],[140.248,36.5973],[140.2488,36.5329],[140.2135,36.473],[140.2024,36.4199],[140.1853,36.3983],[140.1443,36.4141],[140.1101,36.4075],[140.0449,36.3751],[139.9791,36.3703],[139.9645,36.3509],[139.8487,36.3113],[139.8217,36.2398],[139.7272,36.206],[139.6879,36.1998],[139.6986,36.1521],[139.7298,36.0879],[139.7762,36.0909],[139.8785,36.0072],[139.9008,35.9769],[139.9341,35.9684],[139.9392,35.9403],[139.9968,35.9092],[140.017,35.9106],[140.0762,35.877],[140.1272,35.8709],[140.1466,35.8456],[140.2064,35.8614],[140.2436,35.8554],[140.2812,35.8741],[140.3082,35.8645],[140.3557,35.8945],[140.4205,35.9064],[140.4585,35.9261],[140.4841,35.9099],[140.5113,35.9587],[140.6125,35.8901],[140.6318,35.8589],[140.7061,35.8365],[140.7295,35.7962],[140.8204,35.7396],[140.8519,35.7439],[140.8318,35.7532],[140.775,35.8233],[140.6572,35.9959],[140.61,36.0865],[140.572,36.1846],[140.5596,36.2917],[140.5939,36.3201],[140.6218,36.3623],[140.608,36.4306],[140.612,36.4779],[140.7169,36.6927],[140.7468,36.7807],[140.7705,36.8199],[140.8062,36.8313],[140.7936,36.8596]]]},"properties":{"nam":"Ibaraki Ken","nam_ja":"茨城県","id":8}},
{"type":"Feature","geometry":{"type":"MultiPolygon","coordinates":[[[[127.9339,26.9943],[127.9414,27.0163],[127.9905,27.0447],[127.9824,27.071],[127.9314,27.0203],[127.9339,26.9943]]],[[[128.1534,26.7166],[128.117,26.7023],[128.085,26.6493],[128.0234,26.6265],[127.9884,26.6557],[127.9968,26.6901],[127.9477,26.7076],[127.8725,26.6869],[127.8775,26.6403],[127.894,26.6056],[127.9215,26.6089],[127.9797,26.5865],[127.9654,26.548],[127.9334,26.5384],[127.8085,26.4587],[127.7696,26.4449],[127.7167,26.3995],[127.7374,26.3623],[127.7557,26.2944],[127.7069,26.273],[127.6354,26.1977],[127.6673,26.1249],[127.657,26.0817],[127.6764,26.0739],[127.7334,26.0991],[127.7468,26.1184],[127.794,26.1368],[127.8303,26.1683],[127.7648,26.2051],[127.7839,26.2252],[127.8094,26.2941],[127.8624,26.3447],[127.899,26.3047],[127.9173,26.3166],[127.8718,26.3611],[127.8718,26.3847],[127.8398,26.4051],[127.8515,26.4501],[127.885,26.4561],[127.9416,26.4407],[127.9905,26.5032],[128.1351,26.5541],[128.1502,26.5977],[128.1447,26.6237],[128.2341,26.6299],[128.2781,26.6772],[128.3196,26.7564],[128.315,26.8201],[128.2675,26.8596],[128.2208,26.7875],[128.1534,26.7166]]],[[[127.8061,26.7054],[127.8066,26.7385],[127.7583,26.737],[127.7544,26.7091],[127.8061,26.7054]]],[[[126.7255,26.3461],[126.7637,26.3322],[126.7774,26.3057],[126.8214,26.3496],[126.778,26.3904],[126.7095,26.3695],[126.7255,26.3461]]],[[[127.9321,26.3311],[127.9942,26.3621],[127.9862,26.3835],[127.9321,26.3311]]],[[[131.2306,25.8128],[131.2639,25.8241],[131.2628,25.8688],[131.2233,25.8689],[131.2145,25.8221],[131.2306,25.8128]]],[[[125.306,24.7115],[125.3901,24.7286],[125.4446,24.7247],[125.4296,24.7608],[125.3854,24.7841],[125.3324,24.7991],[125.3332,24.8218],[125.2943,24.8454],[125.2552,24.7949],[125.2813,24.7509],[125.2604,24.7345],[125.306,24.7115]]],[[[125.1812,24.8113],[125.2149,24.8069],[125.2078,24.8459],[125.1772,24.861],[125.1622,24.8272],[125.1812,24.8113]]],[[[124.173,24.3279],[124.2114,24.3532],[124.2465,24.357],[124.2543,24.4114],[124.2489,24.4651],[124.2777,24.4857],[124.3279,24.5664],[124.3068,24.5901],[124.2789,24.5576],[124.2821,24.5325],[124.227,24.4962],[124.2181,24.4527],[124.1496,24.4519],[124.1343,24.4705],[124.0762,24.4463],[124.084,24.4199],[124.1199,24.4309],[124.1378,24.3904],[124.1082,24.3632],[124.173,24.3279]]],[[[123.0116,24.4372],[123.0109,24.4738],[122.9625,24.4729],[122.94,24.4442],[123.0116,24.4372]]],[[[123.8718,24.2544],[123.8811,24.2798],[123.9281,24.3267],[123.9206,24.3659],[123.8792,24.3992],[123.8105,24.4095],[123.7807,24.4365],[123.7446,24.3875],[123.7454,24.3215],[123.6832,24.3313],[123.6797,24.2819],[123.8324,24.2709],[123.8718,24.2544]]]]},"properties":{"nam":"Okinawa Ken","nam_ja":"沖縄県","id":47}},
{"type":"Feature","geometry":{"type":"Polygon","coordinates":[[[139.8698,39.1186],[139.879,39.0978],[139.8404,38.9855],[139.8175,38.9425],[139.7788,38.8365],[139.7468,38.7755],[139.6982,38.7302],[139.6272,38.6878],[139.5642,38.595],[139.5482,38.5534],[139.6016,38.5227],[139.7219,38.4966],[139.7135,38.4701],[139.7225,38.3943],[139.7468,38.3619],[139.817,38.3559],[139.8752,38.317],[139.9001,38.2761],[139.8605,38.2317],[139.7583,38.1933],[139.7127,38.2066],[139.6826,38.1699],[139.6933,38.1155],[139.6437,37.9948],[139.6294,37.894],[139.6811,37.8472],[139.698,37.8499],[139.7075,37.8562],[139.7164,37.8538],[139.7422,37.8207],[139.7836,37.8319],[139.8102,37.8035],[139.8585,37.827],[139.8805,37.8103],[139.9585,37.8141],[139.9927,37.7589],[140.0539,37.771],[140.0999,37.7405],[140.1406,37.7389],[140.167,37.7573],[140.2373,37.7467],[140.2988,37.809],[140.2627,37.8355],[140.265,37.9065],[140.2801,37.9769],[140.2762,38.0351],[140.3027,38.0539],[140.3726,38.0573],[140.4211,38.0865],[140.4293,38.1257],[140.4795,38.1807],[140.4714,38.2697],[140.4927,38.302],[140.5299,38.3248],[140.5218,38.35],[140.5783,38.3931],[140.5807,38.4376],[140.6134,38.4538],[140.5739,38.4958],[140.5601,38.5425],[140.5789,38.5685],[140.538,38.6341],[140.5884,38.6343],[140.6189,38.673],[140.6074,38.7207],[140.6463,38.7688],[140.6053,38.7833],[140.5912,38.8353],[140.5411,38.8618],[140.5473,38.8895],[140.5024,38.8952],[140.4623,38.9199],[140.4463,38.9803],[140.3765,38.9948],[140.355,39.0243],[140.3114,39.0144],[140.2608,39.0356],[140.2019,39.0353],[140.1509,39.0495],[140.1009,39.0841],[140.076,39.0865],[140.0626,39.1339],[140.0079,39.1234],[139.9947,39.1059],[139.9483,39.1176],[139.8698,39.1186]]]},"properties":{"nam":"Yamagata Ken","nam_ja":"山形県","id":6}},
{"type":"Feature","geometry":{"type":"MultiPolygon","coordinates":[[[[135.6507,34.3832],[135.5795,34.3764],[135.5077,34.3365],[135.4311,34.3473],[135.381,34.3289],[135.3423,34.3344],[135.2894,34.302],[135.2468,34.3131],[135.1844,34.2794],[135.1112,34.272],[135.0931,34.3117],[135.073,34.2769],[135.138,34.2253],[135.1394,34.1909],[135.1718,34.1853],[135.1838,34.1483],[135.1352,34.1387],[135.1153,34.1199],[135.105,34.0709],[135.1358,34.0643],[135.1617,34.0365],[135.125,33.9974],[135.0923,33.9927],[135.094,33.9479],[135.058,33.9025],[135.0747,33.8875],[135.1438,33.8834],[135.186,33.8191],[135.354,33.744],[135.3939,33.7044],[135.3437,33.6586],[135.3807,33.6511],[135.3872,33.6],[135.4052,33.5782],[135.4876,33.5503],[135.511,33.5252],[135.5792,33.507],[135.6302,33.5086],[135.6637,33.4905],[135.7709,33.4789],[135.7982,33.4989],[135.916,33.5527],[135.9435,33.6041],[135.9394,33.6459],[136.0113,33.7235],[135.9659,33.7238],[135.9071,33.7667],[135.8978,33.7901],[135.8563,33.818],[135.8576,33.8729],[135.8082,33.9065],[135.7557,33.8851],[135.6866,33.9039],[135.6475,33.8768],[135.6069,33.8991],[135.6362,33.9503],[135.6356,33.9908],[135.58,34.0569],[135.5396,34.075],[135.5766,34.115],[135.5878,34.1457],[135.6218,34.1596],[135.6678,34.2241],[135.7073,34.2082],[135.7297,34.2283],[135.7189,34.2601],[135.673,34.2807],[135.6507,34.3832]]],[[[136.0032,34.0097],[135.9569,33.9811],[135.9268,33.9811],[135.892,33.9417],[135.9086,33.9184],[135.9278,33.9409],[135.9686,33.929],[135.9766,33.9664],[136.0129,33.9737],[136.0032,34.0097]]],[[[135.8804,33.9091],[135.8744,33.8615],[135.8955,33.8688],[135.8804,33.9091]]]]},"properties":{"nam":"Wakayama Ken","nam_ja":"和歌山県","id":30}},
{"type":"Feature","geometry":{"type":"MultiPolygon","coordinates":[[[[129.3831,34.4243],[129.3855,34.4584],[129.4362,34.5078],[129.4701,34.5539],[129.4691,34.6079],[129.4894,34.665],[129.474,34.6923],[129.4416,34.701],[129.3825,34.6489],[129.3186,34.6324],[129.2857,34.56],[129.3269,34.5381],[129.2734,34.4677],[129.2711,34.391],[129.3139,34.3413],[129.3323,34.3703],[129.3718,34.3362],[129.393,34.3618],[129.3769,34.3983],[129.3831,34.4243]]],[[[129.2134,34.0839],[129.281,34.1303],[129.298,34.2006],[129.3387,34.2995],[129.3058,34.306],[129.2207,34.2977],[129.1842,34.2465],[129.1674,34.1387],[129.2134,34.0839]]],[[[129.7159,33.7044],[129.7316,33.7375],[129.7784,33.7409],[129.7626,33.7833],[129.7667,33.8459],[129.6982,33.8611],[129.6494,33.8065],[129.6768,33.7279],[129.7159,33.7044]]],[[[129.8122,33.3485],[129.8586,33.3786],[129.8082,33.4033],[129.8122,33.3485]]],[[[129.3748,33.169],[129.4333,33.1909],[129.5007,33.2597],[129.5148,33.3242],[129.5657,33.3589],[129.5506,33.3805],[129.4968,33.3551],[129.4363,33.3471],[129.446,33.2961],[129.4038,33.2705],[129.3748,33.169]]],[[[129.7899,33.3403],[129.7444,33.3671],[129.7043,33.3465],[129.6557,33.3745],[129.6264,33.3628],[129.5762,33.38],[129.5613,33.3244],[129.5915,33.3045],[129.564,33.2562],[129.5628,33.2172],[129.6159,33.205],[129.6421,33.1745],[129.7201,33.1369],[129.7661,33.1251],[129.7441,33.0624],[129.7925,33.0824],[129.8362,33.0597],[129.8759,33.0641],[129.9448,33.014],[129.9272,32.9687],[129.9339,32.9199],[129.9903,32.858],[129.9325,32.8576],[129.896,32.8799],[129.8705,32.8513],[129.8329,32.8495],[129.8063,32.8866],[129.8227,32.9717],[129.8001,33.0076],[129.7354,33.0188],[129.7609,33.0493],[129.6783,33.0996],[129.6545,33.0085],[129.6282,32.9785],[129.6343,32.9473],[129.678,32.8823],[129.6847,32.8519],[129.7363,32.8074],[129.776,32.7977],[129.8499,32.7186],[129.8167,32.7063],[129.8162,32.6552],[129.7634,32.5944],[129.784,32.5819],[129.8951,32.6628],[129.9551,32.7415],[129.958,32.7644],[130.0224,32.7585],[130.0835,32.7945],[130.124,32.7879],[130.1793,32.7939],[130.2058,32.729],[130.1365,32.6809],[130.13,32.6392],[130.1909,32.609],[130.2194,32.6057],[130.276,32.6537],[130.301,32.6515],[130.3527,32.6817],[130.3447,32.7085],[130.374,32.7389],[130.3773,32.7782],[130.3385,32.8561],[130.3032,32.8767],[130.2414,32.8749],[130.2191,32.8584],[130.1575,32.8408],[130.1163,32.8823],[130.1791,32.9143],[130.2027,32.9569],[130.0857,32.9748],[130.0087,33.019],[129.9825,33.0564],[129.9389,33.0727],[129.9504,33.1099],[129.9377,33.1651],[129.8877,33.1563],[129.818,33.1835],[129.8106,33.2425],[129.7588,33.2903],[129.7899,33.3403]]],[[[129.1179,33.2456],[129.1496,33.2699],[129.1383,33.2959],[129.0911,33.2875],[129.0697,33.2702],[129.1179,33.2456]]],[[[129.0585,32.8169],[129.0663,32.8633],[129.1096,32.9384],[129.1416,32.9399],[129.1799,32.9706],[129.1686,33.0032],[129.0963,32.9813],[129.1059,33.0869],[129.0842,33.0745],[129.0875,33.0255],[129.0473,33.0355],[129.0411,32.993],[128.9955,32.9652],[129.0061,32.9405],[129.0442,32.9229],[129.0437,32.8215],[129.0585,32.8169]]],[[[129.0259,32.8443],[129.0317,32.8955],[129.0129,32.9248],[128.9684,32.8829],[129.0126,32.8681],[129.0259,32.8443]]],[[[128.9402,32.7997],[128.9625,32.8531],[128.8884,32.866],[128.9386,32.8221],[128.9402,32.7997]]],[[[128.8655,32.7635],[128.9047,32.7965],[128.8823,32.8338],[128.8385,32.8303],[128.8364,32.7875],[128.8655,32.7635]]],[[[128.772,32.5745],[128.7921,32.5931],[128.7676,32.643],[128.8184,32.6366],[128.8687,32.6441],[128.8808,32.6699],[128.8384,32.7134],[128.8463,32.7527],[128.7929,32.7854],[128.7468,32.7507],[128.692,32.7394],[128.6961,32.7665],[128.6502,32.7754],[128.6451,32.721],[128.6642,32.6603],[128.5977,32.6141],[128.6516,32.5909],[128.7377,32.6057],[128.772,32.5745]]]]},"properties":{"nam":"Nagasaki Ken","nam_ja":"長崎県","id":42}},
{"type":"Feature","geometry":{"type":"Polygon","coordinates":[[[140.9553,40.2482],[140.9468,40.2578],[140.9687,40.3376],[140.994,40.3515],[140.9854,40.4275],[140.8925,40.4237],[140.8613,40.4405],[140.8797,40.5115],[140.8118,40.4887],[140.7885,40.4576],[140.6471,40.4039],[140.6032,40.4313],[140.5247,40.4199],[140.4337,40.4699],[140.3838,40.4849],[140.299,40.4467],[140.2216,40.4318],[140.1858,40.4436],[140.1079,40.4364],[140.0794,40.4673],[140.053,40.4673],[139.9731,40.4272],[139.9364,40.4287],[140.0109,40.3752],[140.0255,40.3251],[140.003,40.2121],[139.9727,40.1257],[139.9148,40.0305],[139.8422,39.9702],[139.7981,39.9574],[139.7654,39.9755],[139.6951,39.9798],[139.709,39.9237],[139.7352,39.9044],[139.7427,39.8687],[139.8118,39.8579],[139.8661,39.8981],[139.9209,39.9011],[139.9678,39.8802],[140.0151,39.8365],[140.0496,39.7738],[140.0632,39.6699],[140.0586,39.5865],[140.0256,39.4199],[139.9968,39.3425],[139.9676,39.2965],[139.9282,39.2883],[139.8944,39.2133],[139.9058,39.1888],[139.8698,39.1186],[139.9483,39.1176],[139.9947,39.1059],[140.0079,39.1234],[140.0626,39.1339],[140.076,39.0865],[140.1009,39.0841],[140.1509,39.0495],[140.2019,39.0353],[140.2608,39.0356],[140.3114,39.0144],[140.355,39.0243],[140.3765,38.9948],[140.4463,38.9803],[140.4623,38.9199],[140.5024,38.8952],[140.5473,38.8895],[140.5539,38.8775],[140.6439,38.8879],[140.7161,38.9273],[140.7468,38.9569],[140.7739,38.9585],[140.7645,39.0001],[140.7947,39.0291],[140.8007,39.0773],[140.7529,39.0865],[140.7702,39.1244],[140.7695,39.2521],[140.7182,39.2729],[140.6933,39.3025],[140.7042,39.343],[140.6541,39.3909],[140.6793,39.4181],[140.677,39.4472],[140.7243,39.4807],[140.714,39.4984],[140.7409,39.5348],[140.7279,39.5561],[140.8047,39.612],[140.8229,39.6882],[140.7831,39.7305],[140.8472,39.7931],[140.7835,39.8291],[140.7848,39.8718],[140.8237,39.8843],[140.8781,39.8747],[140.8465,39.9745],[140.8552,40.0439],[140.8447,40.0737],[140.8718,40.0912],[140.882,40.1509],[140.8601,40.1699],[140.9053,40.2222],[140.9553,40.2482]]]},"properties":{"nam":"Akita Ken","nam_ja":"秋田県","id":5}},
{"type":"Feature","geometry":{"type":"Polygon","coordinates":[[[134.4022,35.241],[134.338,35.2204],[134.3208,35.2018],[134.2664,35.2085],[134.1937,35.1895],[134.1534,35.1949],[134.1387,35.279],[134.0972,35.3059],[134.0696,35.2972],[134.0101,35.3076],[133.9968,35.3528],[133.9316,35.3338],[133.9249,35.3075],[133.8627,35.293],[133.8433,35.2532],[133.8176,35.2527],[133.7973,35.2941],[133.7468,35.3183],[133.5957,35.3451],[133.5773,35.3154],[133.5659,35.2554],[133.5143,35.2208],[133.501,35.1927],[133.3974,35.1649],[133.4029,35.1143],[133.288,35.096],[133.2684,35.0578],[133.3203,34.9867],[133.2967,34.9554],[133.3089,34.9371],[133.2972,34.8895],[133.3442,34.8297],[133.3778,34.8051],[133.3652,34.7685],[133.3826,34.6799],[133.4028,34.6719],[133.3829,34.6215],[133.4453,34.5551],[133.4463,34.4802],[133.4893,34.4416],[133.6218,34.4949],[133.659,34.5205],[133.69,34.5123],[133.7034,34.4779],[133.7428,34.4705],[133.7828,34.4381],[133.8342,34.4744],[133.9097,34.4509],[133.9348,34.4723],[133.975,34.534],[134.031,34.5584],[134.0538,34.5865],[134.12,34.5891],[134.1695,34.6517],[134.1894,34.6518],[134.2797,34.7328],[134.3213,34.7218],[134.3165,34.8016],[134.2531,34.8513],[134.2629,34.8849],[134.2944,34.9075],[134.2536,34.9461],[134.2754,34.9629],[134.2806,35.035],[134.3161,35.0433],[134.3185,35.0829],[134.3486,35.0903],[134.3663,35.1454],[134.412,35.1567],[134.4114,35.1861],[134.3805,35.2181],[134.4022,35.241]]]},"properties":{"nam":"Okayama Ken","nam_ja":"岡山県","id":33}},
{"type":"Feature","geometry":{"type":"Polygon","coordinates":[[[131.1845,33.6162],[131.1142,33.6303],[131.0987,33.6187],[131.0393,33.691],[130.9997,33.7572],[131.0169,33.7681],[130.9596,33.839],[130.9926,33.8509],[131.0229,33.9589],[130.9621,33.962],[130.9297,33.9069],[130.8868,33.9021],[130.8543,33.9295],[130.8233,33.9199],[130.7767,33.9342],[130.6861,33.9349],[130.6523,33.8933],[130.6218,33.8819],[130.5371,33.8874],[130.5164,33.8601],[130.4789,33.8507],[130.4723,33.8183],[130.4446,33.7945],[130.4663,33.7532],[130.417,33.6863],[130.3952,33.6101],[130.3453,33.5949],[130.231,33.6165],[130.208,33.6494],[130.1725,33.6297],[130.1459,33.5953],[130.1063,33.5965],[130.1521,33.5369],[130.1218,33.5088],[130.0469,33.4953],[130.0387,33.4697],[130.1839,33.4675],[130.198,33.4811],[130.2468,33.4707],[130.2766,33.4783],[130.3555,33.4335],[130.3953,33.4273],[130.4294,33.3974],[130.4751,33.4375],[130.5116,33.4493],[130.5401,33.4199],[130.541,33.3663],[130.482,33.3049],[130.4579,33.3037],[130.4396,33.2649],[130.388,33.2549],[130.3766,33.2204],[130.3386,33.2033],[130.3549,33.1404],[130.3961,33.108],[130.4242,33.0527],[130.4132,33.0029],[130.5036,33.0045],[130.4942,33.0494],[130.565,33.0872],[130.5797,33.1157],[130.6588,33.1157],[130.6668,33.1571],[130.7221,33.1517],[130.7708,33.1245],[130.8389,33.1039],[130.8639,33.1251],[130.8865,33.1867],[130.8357,33.2114],[130.824,33.2533],[130.8597,33.2673],[130.8654,33.2929],[130.8499,33.3365],[130.8638,33.3773],[130.8843,33.3908],[130.8945,33.4462],[130.9254,33.4779],[130.9737,33.5055],[131.0444,33.5099],[131.1293,33.5021],[131.1626,33.5082],[131.1891,33.5619],[131.1719,33.5883],[131.1845,33.6162]]]},"properties":{"nam":"Fukuoka Ken","nam_ja":"福岡県","id":40}},
{"type":"Feature","geometry":{"type":"Polygon","coordinates":[[[137.5873,36.3899],[137.5398,36.3926],[137.5116,36.4233],[137.461,36.4125],[137.4058,36.4263],[137.3949,36.4548],[137.3135,36.4251],[137.317,36.4596],[137.2789,36.4651],[137.2051,36.4343],[137.1607,36.4567],[137.0787,36.3845],[137.0051,36.2881],[136.9721,36.3092],[136.9467,36.3461],[136.9072,36.361],[136.842,36.3339],[136.8268,36.3032],[136.7921,36.2991],[136.8145,36.2663],[136.8515,36.2484],[136.7984,36.1728],[136.7682,36.1643],[136.7779,36.1305],[136.754,36.0864],[136.7345,36.0484],[136.7264,35.9959],[136.7535,35.9563],[136.7915,35.9467],[136.832,35.8581],[136.8026,35.8439],[136.7891,35.7995],[136.7233,35.8082],[136.6658,35.7852],[136.5897,35.7956],[136.5709,35.7776],[136.5233,35.7883],[136.4843,35.7753],[136.4331,35.7747],[136.3775,35.7952],[136.3283,35.7751],[136.3236,35.7169],[136.2806,35.6587],[136.2887,35.6203],[136.3154,35.6233],[136.3178,35.5469],[136.4002,35.5299],[136.3876,35.4956],[136.4255,35.4477],[136.4115,35.4186],[136.4441,35.3895],[136.4152,35.3735],[136.4108,35.3138],[136.3908,35.2878],[136.3931,35.2532],[136.4149,35.2177],[136.462,35.2361],[136.5024,35.2347],[136.5337,35.2569],[136.5606,35.2065],[136.602,35.1778],[136.6161,35.1495],[136.656,35.1599],[136.6725,35.1347],[136.6777,35.241],[136.7252,35.2955],[136.7703,35.3687],[136.8338,35.3559],[136.9611,35.3993],[136.963,35.4199],[137.049,35.358],[137.0462,35.3397],[137.096,35.2907],[137.1652,35.2825],[137.1778,35.2591],[137.2224,35.2557],[137.3046,35.29],[137.3718,35.2631],[137.3892,35.24],[137.4422,35.2337],[137.5618,35.2893],[137.5569,35.3101],[137.604,35.3365],[137.5983,35.3781],[137.6335,35.3991],[137.5933,35.4467],[137.6314,35.4699],[137.6173,35.5263],[137.5818,35.5387],[137.5648,35.5659],[137.5145,35.6071],[137.545,35.6499],[137.4982,35.6873],[137.4589,35.7613],[137.3984,35.7758],[137.394,35.7971],[137.3376,35.7981],[137.3802,35.8919],[137.4364,35.9051],[137.4581,35.8895],[137.5431,35.9825],[137.5881,36.0056],[137.6138,36.0614],[137.551,36.1098],[137.5909,36.1841],[137.5739,36.2097],[137.6147,36.2649],[137.6467,36.2889],[137.6506,36.3269],[137.5873,36.3899]]]},"properties":{"nam":"Gifu Ken","nam_ja":"岐阜県","id":21}},
{"type":"Feature","geometry":{"type":"Polygon","coordinates":[[[141.6831,40.4509],[141.6112,40.5123],[141.5647,40.5429],[141.5276,40.5293],[141.4733,40.5849],[141.4308,40.6883],[141.4007,40.8365],[141.3874,40.9423],[141.3934,41.1039],[141.3904,41.1699],[141.4096,41.2532],[141.469,41.4195],[141.3979,41.3809],[141.329,41.3552],[141.2465,41.3622],[141.1931,41.3877],[141.1218,41.4487],[141.0682,41.4825],[141.0032,41.4862],[140.924,41.5361],[140.897,41.476],[140.839,41.4205],[140.8192,41.3439],[140.7646,41.1935],[140.7667,41.1458],[140.8123,41.1285],[140.8718,41.1663],[140.9463,41.1746],[140.9817,41.1998],[141.0563,41.1834],[141.1154,41.2149],[141.1582,41.2772],[141.1878,41.2778],[141.223,41.2532],[141.2673,41.1924],[141.2785,41.1551],[141.2468,41.1055],[141.242,41.0489],[141.2213,40.9719],[141.1631,40.8903],[141.1287,40.8723],[141.0844,40.8867],[141.0643,40.9141],[140.9985,40.9369],[140.948,40.9933],[140.8879,41.0107],[140.8605,40.9719],[140.87,40.9139],[140.859,40.8877],[140.7953,40.8365],[140.7359,40.8308],[140.6975,40.8565],[140.6608,40.9489],[140.6352,41.0772],[140.6429,41.1699],[140.603,41.2155],[140.5498,41.2291],[140.4968,41.1893],[140.4307,41.198],[140.3965,41.2351],[140.3424,41.2497],[140.3295,41.2213],[140.3264,41.156],[140.286,41.1215],[140.3219,41.0865],[140.3187,41.0004],[140.3022,40.9174],[140.2826,40.8587],[140.251,40.802],[140.1947,40.7841],[140.1218,40.7426],[140.0522,40.7693],[139.994,40.7341],[139.9634,40.6823],[139.9238,40.6447],[139.8628,40.6169],[139.8718,40.5833],[139.9176,40.5865],[139.9417,40.5495],[139.9489,40.4927],[139.9364,40.4287],[139.9731,40.4272],[140.053,40.4673],[140.0794,40.4673],[140.1079,40.4364],[140.1858,40.4436],[140.2216,40.4318],[140.299,40.4467],[140.3838,40.4849],[140.4337,40.4699],[140.5247,40.4199],[140.6032,40.4313],[140.6471,40.4039],[140.7885,40.4576],[140.8118,40.4887],[140.8797,40.5115],[140.8613,40.4405],[140.8925,40.4237],[140.9854,40.4275],[140.994,40.3515],[140.9687,40.3376],[140.9468,40.2578],[140.9553,40.2482],[140.9805,40.2201],[141.016,40.219],[141.0771,40.2529],[141.1009,40.2815],[141.1743,40.3103],[141.2191,40.3167],[141.2654,40.3504],[141.3174,40.3733],[141.3514,40.3315],[141.4357,40.3745],[141.4809,40.3765],[141.5374,40.3478],[141.587,40.3813],[141.587,40.4075],[141.6547,40.4289],[141.6831,40.4509]]]},"properties":{"nam":"Aomori Ken","nam_ja":"青森県","id":2}},
{"type":"Feature","geometry":{"type":"Polygon","coordinates":[[[135.3708,35.0453],[135.3542,35.0241],[135.3456,34.9653],[135.3872,34.9469],[135.4417,34.9393],[135.424,34.9131],[135.4397,34.8875],[135.4157,34.8195],[135.4414,34.7909],[135.4587,34.7347],[135.4028,34.6932],[135.4442,34.6445],[135.4157,34.5938],[135.4105,34.5608],[135.4457,34.5569],[135.4182,34.5194],[135.3709,34.5026],[135.3531,34.4508],[135.2182,34.3449],[135.0931,34.3117],[135.1112,34.272],[135.1844,34.2794],[135.2468,34.3131],[135.2894,34.302],[135.3423,34.3344],[135.381,34.3289],[135.4311,34.3473],[135.5077,34.3365],[135.5795,34.3764],[135.6507,34.3832],[135.6754,34.3995],[135.6766,34.5246],[135.6505,34.5449],[135.6815,34.5849],[135.6592,34.6025],[135.6727,34.7017],[135.7038,34.7239],[135.7284,34.7779],[135.7447,34.8043],[135.6905,34.8561],[135.6749,34.8987],[135.6117,34.9421],[135.6129,34.9713],[135.5707,34.9674],[135.5507,34.9179],[135.481,34.9495],[135.4928,34.9877],[135.4361,35.0083],[135.3821,35.0101],[135.3708,35.0453]]]},"properties":{"nam":"Osaka Fu","nam_ja":"大阪府","id":27}},
{"type":"Feature","geometry":{"type":"Polygon","coordinates":[[[138.6957,36.7386],[138.6723,36.7707],[138.6956,36.8075],[138.6934,36.8523],[138.6267,36.8822],[138.5839,36.9283],[138.5864,36.9874],[138.5658,37.0214],[138.5246,37.0305],[138.4563,37.0198],[138.3947,36.9973],[138.3431,36.9209],[138.2984,36.9131],[138.2961,36.8563],[138.2144,36.8677],[138.1659,36.8448],[138.1152,36.8505],[138.0694,36.8049],[138.0033,36.8267],[138.0318,36.8899],[137.9916,36.9106],[137.9215,36.9199],[137.8714,36.9023],[137.8764,36.8672],[137.82,36.7992],[137.7625,36.7664],[137.7499,36.7044],[137.7615,36.6651],[137.7443,36.6176],[137.7524,36.5954],[137.6887,36.5628],[137.6861,36.5372],[137.6511,36.4815],[137.6334,36.4257],[137.5873,36.3899],[137.6506,36.3269],[137.6467,36.2889],[137.6147,36.2649],[137.5739,36.2097],[137.5909,36.1841],[137.551,36.1098],[137.6138,36.0614],[137.5881,36.0056],[137.5431,35.9825],[137.4581,35.8895],[137.4364,35.9051],[137.3802,35.8919],[137.3376,35.7981],[137.394,35.7971],[137.3984,35.7758],[137.4589,35.7613],[137.4982,35.6873],[137.545,35.6499],[137.5145,35.6071],[137.5648,35.5659],[137.5818,35.5387],[137.6173,35.5263],[137.6314,35.4699],[137.5933,35.4467],[137.6335,35.3991],[137.5983,35.3781],[137.604,35.3365],[137.5569,35.3101],[137.5618,35.2893],[137.5528,35.2401],[137.5774,35.1993],[137.7056,35.2336],[137.7597,35.2215],[137.7797,35.2032],[137.838,35.2125],[137.8718,35.2188],[137.8824,35.2481],[137.9305,35.2757],[137.9672,35.2833],[138.0717,35.3465],[138.1419,35.3707],[138.1521,35.3981],[138.1193,35.4479],[138.1552,35.4589],[138.1599,35.4882],[138.1381,35.5219],[138.1899,35.5787],[138.2186,35.6445],[138.1803,35.7128],[138.2356,35.7575],[138.1855,35.7949],[138.2483,35.8859],[138.2922,35.8667],[138.3703,35.9715],[138.4403,35.9523],[138.4544,35.9003],[138.4901,35.8964],[138.5093,35.922],[138.6055,35.9087],[138.6105,35.8742],[138.6761,35.8699],[138.6854,35.8933],[138.7288,35.9093],[138.7387,35.9384],[138.7127,35.9853],[138.6314,36.0283],[138.6438,36.0507],[138.6306,36.0913],[138.6346,36.1336],[138.598,36.1381],[138.5875,36.1605],[138.637,36.1745],[138.6347,36.2056],[138.6031,36.2479],[138.6004,36.2785],[138.6535,36.3031],[138.6481,36.4083],[138.5922,36.4245],[138.5334,36.4023],[138.4898,36.4016],[138.4009,36.4347],[138.4039,36.5209],[138.4285,36.5556],[138.4274,36.5961],[138.458,36.6333],[138.5252,36.6515],[138.5198,36.6889],[138.5434,36.7039],[138.6957,36.7386]]]},"properties":{"nam":"Nagano Ken","nam_ja":"長野県","id":20}},
{"type":"Feature","geometry":{"type":"Polygon","coordinates":[[[131.8851,32.7457],[131.8739,32.7906],[131.945,32.7925],[131.9838,32.8625],[131.9827,32.9135],[131.9584,32.9457],[131.896,32.98],[131.9007,33.0103],[131.9648,33.0728],[131.9116,33.0664],[131.8551,33.0855],[131.8402,33.1149],[131.8047,33.1305],[131.889,33.2441],[131.8905,33.2681],[131.8094,33.243],[131.7468,33.2483],[131.6907,33.2792],[131.6142,33.2617],[131.586,33.2462],[131.5111,33.2688],[131.4974,33.3578],[131.5258,33.3677],[131.5861,33.3463],[131.5962,33.3709],[131.6435,33.3757],[131.6346,33.4233],[131.7024,33.4071],[131.7339,33.4703],[131.7421,33.5427],[131.7294,33.5865],[131.6601,33.6699],[131.6153,33.6749],[131.5846,33.6925],[131.4981,33.6699],[131.4937,33.6435],[131.4232,33.5917],[131.4252,33.5733],[131.2782,33.5807],[131.1845,33.6162],[131.1719,33.5883],[131.1891,33.5619],[131.1626,33.5082],[131.1293,33.5021],[131.0444,33.5099],[130.9737,33.5055],[130.9254,33.4779],[130.8945,33.4462],[130.8843,33.3908],[130.8638,33.3773],[130.8499,33.3365],[130.8654,33.2929],[130.8597,33.2673],[130.824,33.2533],[130.8357,33.2114],[130.8865,33.1867],[130.8639,33.1251],[130.8389,33.1039],[130.8863,33.0865],[130.915,33.0541],[130.9491,33.0509],[130.9693,33.0237],[131.0106,33.0426],[131.0231,33.0874],[130.9776,33.1405],[130.9916,33.1833],[131.0383,33.1943],[131.1148,33.1801],[131.1597,33.1409],[131.1736,33.0834],[131.2145,33.055],[131.2256,33.0194],[131.2628,32.9762],[131.246,32.9408],[131.2632,32.8791],[131.3286,32.8329],[131.359,32.8039],[131.4204,32.8117],[131.4751,32.8365],[131.5168,32.8003],[131.5077,32.774],[131.5692,32.755],[131.5916,32.7751],[131.6682,32.7667],[131.712,32.7739],[131.7368,32.8329],[131.793,32.8219],[131.8579,32.8213],[131.8439,32.7751],[131.8471,32.7361],[131.8851,32.7457]]]},"properties":{"nam":"Oita Ken","nam_ja":"大分県","id":44}},
{"type":"Feature","geometry":{"type":"Polygon","coordinates":[[[136.6725,35.1347],[136.656,35.1599],[136.6161,35.1495],[136.602,35.1778],[136.5606,35.2065],[136.5337,35.2569],[136.5024,35.2347],[136.462,35.2361],[136.4149,35.2177],[136.4083,35.1872],[136.4543,35.1616],[136.436,35.1301],[136.4382,35.0652],[136.4182,35.0484],[136.4143,34.9796],[136.373,34.9418],[136.3571,34.9005],[136.2503,34.8578],[136.1653,34.8878],[136.0857,34.8857],[136.1073,34.8519],[136.0881,34.8113],[136.0218,34.7915],[136.0285,34.7572],[136.0552,34.7384],[136.0855,34.6763],[136.0646,34.6513],[136.0674,34.6217],[136.0495,34.5801],[136.0841,34.5593],[136.1518,34.5591],[136.1715,34.5341],[136.2116,34.5288],[136.218,34.484],[136.2059,34.4485],[136.1279,34.4449],[136.0885,34.4282],[136.0703,34.3881],[136.1017,34.3365],[136.0947,34.301],[136.1311,34.2517],[136.0926,34.19],[136.1141,34.1593],[136.0732,34.0333],[136.0186,34.0359],[136.0032,34.0097],[136.0129,33.9737],[135.9766,33.9664],[135.9686,33.929],[135.9278,33.9409],[135.9086,33.9184],[135.8804,33.9091],[135.8955,33.8688],[135.8744,33.8615],[135.8576,33.8729],[135.8563,33.818],[135.8978,33.7901],[135.9071,33.7667],[135.9659,33.7238],[136.0113,33.7235],[136.0484,33.8097],[136.1077,33.8904],[136.1499,33.9004],[136.1473,33.9283],[136.194,33.9259],[136.2639,33.9678],[136.2821,34.0196],[136.244,34.0387],[136.2433,34.0596],[136.2016,34.0751],[136.2854,34.117],[136.2783,34.1616],[136.3621,34.1899],[136.4634,34.2318],[136.4937,34.2249],[136.5058,34.2739],[136.6048,34.2583],[136.6543,34.287],[136.6712,34.3329],[136.7237,34.3041],[136.792,34.2881],[136.8238,34.3112],[136.8447,34.2507],[136.8979,34.2755],[136.8643,34.3636],[136.8985,34.3785],[136.9279,34.4134],[136.9134,34.4533],[136.8837,34.4496],[136.8667,34.4801],[136.8127,34.4924],[136.7334,34.5379],[136.6649,34.5591],[136.6483,34.5865],[136.5542,34.6125],[136.5478,34.6661],[136.5204,34.6967],[136.5337,34.7532],[136.5622,34.7963],[136.6145,34.8536],[136.6462,34.9045],[136.6514,34.9931],[136.6973,35.0204],[136.7491,35.037],[136.7704,35.0214],[136.7509,35.0772],[136.6725,35.1347]]]},"properties":{"nam":"Mie Ken","nam_ja":"三重県","id":24}},
{"type":"Feature","geometry":{"type":"MultiPolygon","coordinates":[[[[133.1357,35.0743],[133.0603,35.0814],[133.033,35.0683],[132.9902,35.1014],[132.9499,35.0755],[132.8635,35.0972],[132.827,35.0612],[132.7872,35.0048],[132.7198,34.9481],[132.6845,34.9507],[132.6505,34.9199],[132.663,34.8899],[132.6999,34.8821],[132.7099,34.8499],[132.6151,34.8433],[132.5374,34.7949],[132.4844,34.7973],[132.4346,34.8206],[132.398,34.7826],[132.3718,34.8012],[132.298,34.7771],[132.2593,34.8065],[132.2215,34.7503],[132.1422,34.7155],[132.1612,34.6833],[132.1157,34.6127],[132.1152,34.5667],[132.0838,34.5379],[132.0527,34.5299],[132.0359,34.5022],[132.0679,34.4675],[132.0681,34.4151],[132.0844,34.3579],[132.1394,34.2847],[132.1586,34.2335],[132.2449,34.2107],[132.2322,34.2573],[132.2709,34.2771],[132.325,34.3426],[132.3737,34.3609],[132.4472,34.3501],[132.4784,34.3577],[132.5036,34.3365],[132.4945,34.3135],[132.5181,34.2809],[132.5238,34.2457],[132.5678,34.1985],[132.5957,34.2287],[132.6396,34.2023],[132.6943,34.234],[132.7721,34.2532],[132.8009,34.3103],[132.8469,34.2923],[132.8945,34.3263],[132.9922,34.3365],[133.0168,34.3291],[133.0791,34.3463],[133.0923,34.3887],[133.129,34.3836],[133.2107,34.4106],[133.2415,34.4359],[133.27,34.4315],[133.2901,34.3834],[133.3669,34.3691],[133.3844,34.4193],[133.4307,34.4241],[133.4463,34.4802],[133.4453,34.5551],[133.3829,34.6215],[133.4028,34.6719],[133.3826,34.6799],[133.3652,34.7685],[133.3778,34.8051],[133.3442,34.8297],[133.2972,34.8895],[133.3089,34.9371],[133.2967,34.9554],[133.3203,34.9867],[133.2684,35.0578],[133.2506,35.0781],[133.1424,35.0652],[133.1357,35.0743]]],[[[133.2114,34.3567],[133.2143,34.4094],[133.1769,34.3958],[133.1745,34.3665],[133.2114,34.3567]]],[[[133.1921,34.2751],[133.2036,34.3187],[133.1762,34.3553],[133.1333,34.3332],[133.1564,34.2984],[133.1921,34.2751]]],[[[133.0825,34.2565],[133.1468,34.2895],[133.1392,34.3152],[133.0834,34.3077],[133.0676,34.2729],[133.0825,34.2565]]],[[[132.2738,34.2314],[132.3465,34.2809],[132.3315,34.3109],[132.2881,34.2863],[132.262,34.2532],[132.2738,34.2314]]],[[[132.4284,34.1284],[132.4902,34.1504],[132.4973,34.2689],[132.4798,34.2853],[132.4341,34.2853],[132.4775,34.2352],[132.4428,34.2229],[132.4249,34.2532],[132.3863,34.2601],[132.385,34.2253],[132.4466,34.1839],[132.4284,34.1284]]],[[[132.8791,34.2058],[132.9157,34.2341],[132.8862,34.2616],[132.8399,34.2277],[132.8791,34.2058]]],[[[132.7377,34.158],[132.7586,34.1921],[132.7083,34.2044],[132.6856,34.1826],[132.7377,34.158]]],[[[132.5504,34.079],[132.556,34.1796],[132.5365,34.1999],[132.5013,34.1837],[132.5031,34.1331],[132.4474,34.108],[132.46,34.0823],[132.5186,34.0929],[132.5504,34.079]]],[[[132.8197,34.1509],[132.8673,34.1753],[132.8451,34.1944],[132.8025,34.1718],[132.8197,34.1509]]]]},"properties":{"nam":"Hiroshima Ken","nam_ja":"広島県","id":34}},
{"type":"Feature","geometry":{"type":"MultiPolygon","coordinates":[[[[148.3427,45.2912],[148.2667,45.2721],[148.1758,45.2601],[148.07,45.2609],[148.0311,45.2723],[147.9975,45.325],[147.9638,45.4182],[147.9252,45.4379],[147.8734,45.3985],[147.8512,45.3649],[147.8591,45.3177],[147.8852,45.26],[147.8718,45.2257],[147.7396,45.1955],[147.6938,45.1435],[147.6902,45.0947],[147.6362,45.0765],[147.5371,45.1063],[147.518,44.9986],[147.4853,44.99],[147.3762,44.9089],[147.2671,44.8681],[147.2468,44.8127],[147.2027,44.7979],[147.1308,44.8304],[147.1014,44.8129],[147.1166,44.7793],[147.1933,44.7648],[147.2004,44.7392],[147.1817,44.6894],[147.1255,44.6495],[147.0334,44.6382],[147.0259,44.5991],[146.9968,44.5787],[146.9342,44.6102],[146.9547,44.5536],[146.8915,44.518],[146.861,44.4667],[146.8718,44.4413],[146.9527,44.4265],[146.9888,44.4518],[147.0297,44.5191],[147.1061,44.5695],[147.1446,44.5592],[147.2216,44.5817],[147.2608,44.6144],[147.2672,44.6387],[147.3365,44.7155],[147.4409,44.7729],[147.4889,44.782],[147.5156,44.8119],[147.5524,44.817],[147.5985,44.8547],[147.6342,44.908],[147.6139,44.9403],[147.6259,44.9718],[147.6812,45.0032],[147.7852,44.9483],[147.8526,44.9657],[147.9076,44.9613],[147.9839,45.0032],[147.9946,45.024],[148.0907,45.1065],[148.3287,45.2235],[148.3787,45.2264],[148.4589,45.2502],[148.5664,45.3107],[148.6402,45.3349],[148.7522,45.3365],[148.7813,45.3245],[148.8428,45.3523],[148.8773,45.3929],[148.8317,45.4277],[148.8367,45.4624],[148.8883,45.4843],[148.8954,45.5131],[148.8557,45.5423],[148.7852,45.5573],[148.6536,45.5375],[148.6397,45.5083],[148.5775,45.4883],[148.551,45.458],[148.4876,45.4199],[148.4442,45.3532],[148.3718,45.3163],[148.3427,45.2912]]],[[[141.5791,45.1769],[141.6641,45.0323],[141.7234,44.9199],[141.7552,44.8365],[141.7783,44.7532],[141.7915,44.6699],[141.7874,44.5865],[141.7679,44.5547],[141.7572,44.4575],[141.7102,44.3923],[141.6745,44.3273],[141.6486,44.315],[141.6578,44.2395],[141.6619,44.0172],[141.6315,43.9299],[141.562,43.8601],[141.5215,43.8599],[141.3879,43.8072],[141.3299,43.7253],[141.3515,43.6449],[141.3862,43.5865],[141.3586,43.5195],[141.4286,43.4199],[141.4239,43.3289],[141.3531,43.2532],[141.3017,43.2086],[141.2328,43.1699],[141.1617,43.1449],[141.0105,43.1948],[141.0167,43.2396],[140.9271,43.2279],[140.914,43.2117],[140.7921,43.1954],[140.7184,43.2505],[140.6411,43.267],[140.6304,43.2956],[140.5805,43.3113],[140.5068,43.3683],[140.4604,43.346],[140.36,43.3157],[140.326,43.2217],[140.3607,43.1807],[140.4437,43.126],[140.512,43.0342],[140.5224,42.9917],[140.4154,42.941],[140.344,42.8562],[140.3057,42.8288],[140.3055,42.7787],[140.2468,42.7688],[140.2376,42.7939],[140.1865,42.8257],[140.142,42.7532],[140.0715,42.7262],[140.046,42.6947],[139.9257,42.689],[139.8723,42.6663],[139.8236,42.5951],[139.8468,42.5274],[139.8524,42.463],[139.8292,42.3935],[139.7818,42.3539],[139.7668,42.3112],[139.7969,42.2316],[139.8812,42.2076],[139.9227,42.1335],[139.9902,42.1289],[140.026,42.1133],[140.1198,42.0043],[140.1405,41.9223],[140.1218,41.8218],[140.0756,41.8081],[140.062,41.7532],[140.009,41.6916],[139.9839,41.6065],[139.9882,41.5513],[140.0285,41.4624],[140.0771,41.4246],[140.1453,41.4291],[140.1845,41.4024],[140.2163,41.4113],[140.2593,41.4817],[140.3646,41.516],[140.4059,41.5198],[140.4391,41.5547],[140.4293,41.5865],[140.4368,41.6699],[140.4583,41.6964],[140.5269,41.701],[140.6021,41.7432],[140.6263,41.8091],[140.6643,41.823],[140.7172,41.8067],[140.7275,41.7889],[140.8569,41.7605],[140.9307,41.7375],[140.9678,41.7109],[141.0308,41.7195],[141.0747,41.7427],[141.1125,41.7869],[141.1579,41.7858],[141.1843,41.8167],[141.1471,41.8322],[141.1482,41.8554],[141.0437,41.8941],[141.0118,41.8943],[140.9588,41.918],[140.8789,42.0059],[140.8208,42.0363],[140.8033,42.0737],[140.7603,42.1171],[140.7069,42.1391],[140.5792,42.1089],[140.516,42.1293],[140.3836,42.2241],[140.3405,42.2275],[140.2869,42.2532],[140.2765,42.3112],[140.3157,42.4199],[140.3718,42.5027],[140.4116,42.5435],[140.4769,42.5891],[140.5349,42.589],[140.5836,42.5676],[140.6427,42.5865],[140.7009,42.5865],[140.777,42.5331],[140.7824,42.5033],[140.8718,42.4609],[140.9001,42.4199],[140.9085,42.3802],[140.9543,42.3608],[140.9432,42.321],[140.9968,42.3017],[141.0929,42.3965],[141.1593,42.4423],[141.208,42.4554],[141.3508,42.543],[141.4968,42.604],[141.6248,42.6311],[141.6729,42.6309],[141.8108,42.6112],[141.8996,42.5779],[142.0293,42.4846],[142.1535,42.4638],[142.1958,42.4474],[142.2778,42.3772],[142.3718,42.3249],[142.4465,42.3041],[142.478,42.2746],[142.5856,42.2435],[142.6734,42.1919],[142.7621,42.1747],[142.8178,42.1415],[142.9106,42.1326],[142.9649,42.1192],[143.0113,42.0814],[143.097,42.0498],[143.1364,42.0266],[143.1643,41.9831],[143.2161,41.9518],[143.2468,41.9725],[143.2948,42.0435],[143.3232,42.1177],[143.3357,42.2027],[143.3084,42.2457],[143.3227,42.3043],[143.3617,42.3736],[143.4328,42.4757],[143.5251,42.5739],[143.6318,42.6699],[143.8606,42.8365],[143.9196,42.8748],[144.049,42.9416],[144.1689,42.9847],[144.3142,43.0057],[144.3718,42.9867],[144.3712,42.969],[144.4865,42.9402],[144.5299,42.9519],[144.6322,42.9515],[144.6761,42.9397],[144.7747,42.9336],[144.7227,42.9801],[144.7468,43.0245],[144.7819,43.0542],[144.8221,43.0596],[144.8561,43.0019],[144.8845,42.9854],[144.9619,42.9812],[145.0241,42.9997],[145.0318,43.0297],[145.0877,43.0468],[145.1182,43.0813],[145.1151,43.1233],[145.1715,43.151],[145.203,43.1367],[145.298,43.1733],[145.4061,43.1862],[145.5123,43.1902],[145.5489,43.2144],[145.5668,43.2815],[145.6114,43.3113],[145.7502,43.3373],[145.8038,43.3637],[145.8074,43.3887],[145.7507,43.3943],[145.7214,43.3839],[145.6507,43.3914],[145.6378,43.3731],[145.5234,43.3069],[145.4862,43.2725],[145.3893,43.2984],[145.3086,43.3597],[145.2753,43.4097],[145.2468,43.522],[145.1966,43.6005],[145.1968,43.6251],[145.1465,43.6465],[145.0684,43.7532],[145.0623,43.8075],[145.0997,43.8615],[145.0954,43.8926],[145.1573,43.9843],[145.2234,44.0386],[145.2651,44.1391],[145.3077,44.1699],[145.3668,44.2592],[145.3331,44.3459],[145.3043,44.3113],[145.2402,44.26],[145.192,44.1956],[145.161,44.1829],[145.0105,44.0961],[144.9933,44.0698],[144.9366,44.0439],[144.9227,44.0177],[144.8354,43.9523],[144.7953,43.932],[144.7109,43.9199],[144.6218,43.9179],[144.4968,43.9289],[144.407,43.9451],[144.3192,43.9729],[144.2558,44.0406],[144.2529,44.1045],[144.2143,44.1031],[143.9968,44.1356],[143.7853,44.1811],[143.6522,44.2222],[143.4968,44.2762],[143.3718,44.3333],[143.3489,44.3715],[143.2398,44.4199],[143.22,44.4403],[143.0925,44.5032],[142.9968,44.5579],[142.8609,44.6769],[142.8008,44.7133],[142.7313,44.7689],[142.6306,44.89],[142.5888,44.9199],[142.5803,44.9626],[142.5445,44.988],[142.5324,45.0259],[142.389,45.1375],[142.2637,45.2467],[142.1696,45.3411],[142.0637,45.3947],[142.0173,45.4554],[141.9728,45.4814],[141.9603,45.5128],[141.9131,45.5185],[141.8798,45.4956],[141.8577,45.4348],[141.796,45.4077],[141.7296,45.399],[141.6354,45.4204],[141.658,45.3682],[141.6175,45.3085],[141.6123,45.2775],[141.5716,45.2354],[141.5791,45.1769]]],[[[141.0317,45.2746],[141.0572,45.3183],[141.0517,45.4494],[140.994,45.4275],[140.9835,45.3843],[141.0317,45.2746]]],[[[141.1497,45.2255],[141.1335,45.2135],[141.1418,45.1634],[141.168,45.1373],[141.2395,45.0986],[141.2757,45.1117],[141.3305,45.152],[141.3181,45.1985],[141.2946,45.2217],[141.2351,45.2347],[141.1989,45.2602],[141.1497,45.2255]]],[[[145.7473,44.0647],[145.6814,44.0265],[145.6461,43.9936],[145.5977,43.9727],[145.5901,43.9532],[145.4657,43.8909],[145.4384,43.8499],[145.4069,43.8421],[145.4269,43.7741],[145.4243,43.733],[145.4471,43.725],[145.5258,43.7353],[145.5498,43.7249],[145.5362,43.6759],[145.5532,43.6673],[145.5733,43.7774],[145.5771,43.8455],[145.6411,43.9036],[145.7184,43.9124],[145.7797,43.9361],[145.7908,43.9791],[145.8278,44.0294],[145.8551,44.0306],[145.9095,44.1239],[145.9478,44.1538],[146.0449,44.1909],[146.0693,44.2347],[146.1156,44.2652],[146.2468,44.2709],[146.3678,44.3193],[146.3811,44.3527],[146.4506,44.3783],[146.4908,44.3545],[146.5348,44.3804],[146.5537,44.4302],[146.4619,44.4202],[146.3332,44.4189],[146.25,44.4467],[146.226,44.4831],[146.1863,44.5069],[146.129,44.5091],[146.0803,44.4723],[146.0528,44.4199],[146.0073,44.3817],[145.9924,44.3247],[145.9442,44.2791],[145.8845,44.2463],[145.832,44.1784],[145.7437,44.1038],[145.7473,44.0647]]],[[[146.6455,43.7027],[146.6762,43.7082],[146.6912,43.7431],[146.7269,43.7347],[146.7886,43.7809],[146.8439,43.81],[146.8992,43.8067],[146.9212,43.8386],[146.845,43.8898],[146.7738,43.8759],[146.7222,43.8333],[146.6098,43.8175],[146.585,43.8021],[146.6048,43.7645],[146.5864,43.7443],[146.6455,43.7027]]],[[[146.1164,43.4587],[146.1769,43.4793],[146.186,43.5159],[146.1415,43.5491],[146.0795,43.5331],[146.1164,43.4587]]],[[[139.4503,42.0521],[139.5036,42.0966],[139.5197,42.139],[139.5173,42.177],[139.5607,42.2289],[139.5355,42.2339],[139.4346,42.215],[139.4068,42.1784],[139.4232,42.1364],[139.4221,42.0718],[139.4503,42.0521]]]]},"properties":{"nam":"Hokkai Do","nam_ja":"北海道","id":1}},
{"type":"Feature","geometry":{"type":"MultiPolygon","coordinates":[[[[134.8671,35.6581],[134.8406,35.6427],[134.8125,35.6637],[134.7069,35.6536],[134.657,35.6655],[134.6278,35.6409],[134.5978,35.6587],[134.5581,35.6511],[134.541,35.6689],[134.495,35.6563],[134.4509,35.629],[134.3695,35.6146],[134.4078,35.5877],[134.425,35.5419],[134.4398,35.4428],[134.4795,35.4253],[134.4719,35.383],[134.5133,35.3539],[134.504,35.3365],[134.5146,35.2773],[134.434,35.2295],[134.4022,35.241],[134.3805,35.2181],[134.4114,35.1861],[134.412,35.1567],[134.3663,35.1454],[134.3486,35.0903],[134.3185,35.0829],[134.3161,35.0433],[134.2806,35.035],[134.2754,34.9629],[134.2536,34.9461],[134.2944,34.9075],[134.2629,34.8849],[134.2531,34.8513],[134.3165,34.8016],[134.3213,34.7218],[134.3632,34.7407],[134.4105,34.7278],[134.4338,34.7668],[134.4809,34.7655],[134.528,34.7827],[134.5837,34.7709],[134.6651,34.7679],[134.7071,34.777],[134.7468,34.7682],[134.8263,34.7063],[134.8429,34.7204],[134.9815,34.6414],[135.0183,34.6433],[135.0596,34.6255],[135.1111,34.6413],[135.1833,34.6494],[135.1903,34.6813],[135.2347,34.6986],[135.2881,34.704],[135.3389,34.7223],[135.3774,34.6921],[135.4028,34.6932],[135.4587,34.7347],[135.4414,34.7909],[135.4157,34.8195],[135.4397,34.8875],[135.424,34.9131],[135.4417,34.9393],[135.3872,34.9469],[135.3456,34.9653],[135.3542,35.0241],[135.3708,35.0453],[135.3992,35.0761],[135.393,35.1109],[135.3405,35.1499],[135.2946,35.1419],[135.2738,35.1771],[135.2327,35.1774],[135.1556,35.2262],[135.1613,35.2574],[135.109,35.2663],[135.0566,35.258],[135.0095,35.2837],[134.9208,35.3163],[134.923,35.3943],[134.9448,35.4132],[134.9997,35.3867],[135.0504,35.4419],[135.0367,35.5373],[134.9959,35.5353],[134.9265,35.5125],[134.9143,35.5448],[134.8542,35.5881],[134.8725,35.6197],[134.8671,35.6581]]],[[[134.7871,34.4272],[134.7265,34.3296],[134.6841,34.3235],[134.6595,34.2951],[134.6698,34.2489],[134.7293,34.1889],[134.7957,34.1993],[134.8414,34.2283],[134.9519,34.2671],[134.8936,34.3542],[134.9085,34.4365],[134.9791,34.5032],[134.9945,34.5455],[135.0254,34.5763],[134.9826,34.6027],[134.9328,34.5486],[134.886,34.5287],[134.8355,34.4669],[134.818,34.4691],[134.7871,34.4272]]]]},"properties":{"nam":"Hyogo Ken","nam_ja":"兵庫県","id":28}},
{"type":"Feature","geometry":{"type":"Polygon","coordinates":[[[139.7762,36.0909],[139.8174,36.0325],[139.8142,35.9979],[139.8494,35.9383],[139.8873,35.8965],[139.8938,35.7827],[139.8805,35.7712],[139.9187,35.6978],[139.8858,35.6768],[139.8729,35.6385],[139.9684,35.6833],[140.0137,35.6575],[140.0839,35.5967],[140.0981,35.5549],[140.0614,35.5437],[140.0065,35.4791],[139.9657,35.4685],[139.9052,35.432],[139.9067,35.3894],[139.8825,35.3613],[139.8454,35.3747],[139.8231,35.3443],[139.8187,35.3037],[139.8528,35.2839],[139.8665,35.2195],[139.8237,35.1967],[139.8248,35.1133],[139.8422,35.0874],[139.8201,35.0662],[139.8238,35.0371],[139.8567,35.0147],[139.8552,34.9897],[139.7547,34.9636],[139.8116,34.9431],[139.8244,34.9111],[139.8868,34.9027],[139.9351,34.9139],[139.9642,34.9429],[139.961,34.9681],[139.9815,35.0113],[140.0381,35.0514],[140.1019,35.0772],[140.1104,35.1077],[140.1685,35.1235],[140.2019,35.1097],[140.3262,35.1401],[140.3514,35.1814],[140.3775,35.181],[140.4059,35.2405],[140.4148,35.3069],[140.395,35.3365],[140.3975,35.4199],[140.4303,35.4983],[140.4968,35.5779],[140.6251,35.6724],[140.6858,35.6982],[140.737,35.6916],[140.811,35.7123],[140.8635,35.7031],[140.8519,35.7439],[140.8204,35.7396],[140.7295,35.7962],[140.7061,35.8365],[140.6318,35.8589],[140.6125,35.8901],[140.5113,35.9587],[140.4841,35.9099],[140.4585,35.9261],[140.4205,35.9064],[140.3557,35.8945],[140.3082,35.8645],[140.2812,35.8741],[140.2436,35.8554],[140.2064,35.8614],[140.1466,35.8456],[140.1272,35.8709],[140.0762,35.877],[140.017,35.9106],[139.9968,35.9092],[139.9392,35.9403],[139.9341,35.9684],[139.9008,35.9769],[139.8785,36.0072],[139.7762,36.0909]]]},"properties":{"nam":"Chiba Ken","nam_ja":"千葉県","id":12}},
{"type":"Feature","geometry":{"type":"Polygon","coordinates":[[[137.6349,36.9803],[137.5722,36.9639],[137.4968,36.9561],[137.4266,36.9245],[137.4187,36.8768],[137.3922,36.8066],[137.3306,36.7619],[137.2338,36.7655],[137.18,36.7577],[137.1119,36.7679],[136.9968,36.8461],[136.9837,36.8728],[137.0321,36.9242],[137.0516,36.9595],[136.9858,36.9667],[136.9281,36.9479],[136.8793,36.9068],[136.8487,36.8124],[136.8522,36.7697],[136.8377,36.7449],[136.7891,36.7185],[136.8151,36.6999],[136.8198,36.6677],[136.7858,36.6297],[136.8011,36.5696],[136.8169,36.5521],[136.7947,36.5081],[136.7964,36.4445],[136.7689,36.4297],[136.7953,36.3999],[136.8042,36.3556],[136.7841,36.3422],[136.7921,36.2991],[136.8268,36.3032],[136.842,36.3339],[136.9072,36.361],[136.9467,36.3461],[136.9721,36.3092],[137.0051,36.2881],[137.0787,36.3845],[137.1607,36.4567],[137.2051,36.4343],[137.2789,36.4651],[137.317,36.4596],[137.3135,36.4251],[137.3949,36.4548],[137.4058,36.4263],[137.461,36.4125],[137.5116,36.4233],[137.5398,36.3926],[137.5873,36.3899],[137.6334,36.4257],[137.6511,36.4815],[137.6861,36.5372],[137.6887,36.5628],[137.7524,36.5954],[137.7443,36.6176],[137.7615,36.6651],[137.7499,36.7044],[137.7625,36.7664],[137.7335,36.8301],[137.7332,36.8701],[137.7136,36.8915],[137.711,36.9446],[137.6675,36.9503],[137.6349,36.9803]]]},"properties":{"nam":"Toyama Ken","nam_ja":"富山県","id":16}},
{"type":"Feature","geometry":{"type":"MultiPolygon","coordinates":[[[[138.944,35.8547],[138.9638,35.8293],[138.9837,35.7695],[139.0256,35.7193],[139.131,35.6718],[139.168,35.6511],[139.2009,35.6525],[139.2329,35.6127],[139.3414,35.6048],[139.3986,35.5844],[139.458,35.5281],[139.5051,35.5751],[139.4904,35.6045],[139.5254,35.6427],[139.6192,35.6135],[139.6678,35.5865],[139.7034,35.5365],[139.7575,35.5442],[139.7898,35.5267],[139.7855,35.5705],[139.7487,35.5865],[139.7526,35.6345],[139.7727,35.646],[139.8729,35.6385],[139.8858,35.6768],[139.9187,35.6978],[139.8805,35.7712],[139.8938,35.7827],[139.8388,35.8008],[139.7508,35.8077],[139.6398,35.7943],[139.609,35.7695],[139.571,35.7642],[139.5372,35.7916],[139.4427,35.7668],[139.3812,35.766],[139.3702,35.7912],[139.3257,35.795],[139.3015,35.8341],[139.1964,35.8401],[139.1384,35.8643],[139.0517,35.8782],[139.0239,35.8974],[138.9682,35.8821],[138.944,35.8547]]],[[[139.4388,34.6786],[139.4471,34.7456],[139.4119,34.787],[139.3603,34.7988],[139.3488,34.7646],[139.3529,34.718],[139.3967,34.6833],[139.4388,34.6786]]],[[[139.129,34.1851],[139.1742,34.2151],[139.1416,34.2435],[139.129,34.1851]]],[[[139.5021,34.0454],[139.5624,34.0685],[139.5649,34.1021],[139.5388,34.1237],[139.4982,34.1214],[139.4731,34.0765],[139.5021,34.0454]]],[[[139.6208,33.852],[139.6321,33.8698],[139.6056,33.9007],[139.5778,33.8625],[139.6208,33.852]]],[[[139.8322,33.0461],[139.8581,33.0785],[139.8464,33.1164],[139.8196,33.1197],[139.7714,33.158],[139.7401,33.1305],[139.7811,33.0725],[139.8322,33.0461]]],[[[142.2207,27.0353],[142.2323,27.0773],[142.1923,27.0895],[142.1879,27.0437],[142.2207,27.0353]]],[[[141.2862,24.7452],[141.3475,24.7822],[141.3289,24.8117],[141.2869,24.7895],[141.2862,24.7452]]]]},"properties":{"nam":"Tokyo To","nam_ja":"東京都","id":13}},
{"type":"Feature","geometry":{"type":"Polygon","coordinates":[[[139.6648,36.2072],[139.6281,36.1946],[139.5879,36.2104],[139.5258,36.1913],[139.4442,36.1969],[139.3771,36.2441],[139.3471,36.2532],[139.3235,36.2297],[139.268,36.2504],[139.2381,36.2461],[139.1639,36.279],[139.1078,36.2532],[139.0576,36.1837],[139.037,36.1263],[139.016,36.1338],[138.9312,36.0883],[138.904,36.0918],[138.8474,36.0671],[138.8285,36.0373],[138.755,36.0346],[138.7127,35.9853],[138.7387,35.9384],[138.7288,35.9093],[138.7782,35.9001],[138.793,35.8751],[138.8463,35.8672],[138.8929,35.8399],[138.944,35.8547],[138.9682,35.8821],[139.0239,35.8974],[139.0517,35.8782],[139.1384,35.8643],[139.1964,35.8401],[139.3015,35.8341],[139.3257,35.795],[139.3702,35.7912],[139.3812,35.766],[139.4427,35.7668],[139.5372,35.7916],[139.571,35.7642],[139.609,35.7695],[139.6398,35.7943],[139.7508,35.8077],[139.8388,35.8008],[139.8938,35.7827],[139.8873,35.8965],[139.8494,35.9383],[139.8142,35.9979],[139.8174,36.0325],[139.7762,36.0909],[139.7298,36.0879],[139.6986,36.1521],[139.6879,36.1998],[139.6648,36.2072]]]},"properties":{"nam":"Saitama Ken","nam_ja":"埼玉県","id":11}},
{"type":"Feature","geometry":{"type":"MultiPolygon","coordinates":[[[[131.6899,34.681],[131.6453,34.6523],[131.6029,34.6619],[131.5925,34.6371],[131.5563,34.6151],[131.5541,34.5806],[131.5033,34.5339],[131.4513,34.5166],[131.4613,34.4862],[131.3957,34.4199],[131.3529,34.4111],[131.3052,34.3829],[131.249,34.3817],[131.1972,34.3973],[131.1544,34.3725],[131.1307,34.4124],[131.0753,34.4234],[131.0337,34.3833],[130.925,34.3459],[130.8664,34.2873],[130.9209,34.2391],[130.9316,34.1875],[130.8616,34.104],[130.9111,34.0591],[130.9031,34.0251],[130.9161,33.9793],[130.8984,33.9217],[130.9913,33.9865],[131.0369,34.057],[131.1497,34.0032],[131.1703,33.9733],[131.1777,33.9315],[131.2091,33.9441],[131.2658,33.9228],[131.3495,33.9656],[131.3473,33.9817],[131.3938,34.035],[131.4495,33.9954],[131.4836,34.0281],[131.539,33.9973],[131.5786,34.0203],[131.6096,34.0212],[131.635,34.0469],[131.7183,34.0577],[131.7468,34.0463],[131.7888,34.0535],[131.8177,34.0349],[131.782,33.994],[131.8586,34.0065],[131.9296,33.9506],[131.9628,33.9438],[132.0244,33.9019],[132.0522,33.9165],[132.0769,33.8931],[132.1299,33.8845],[132.1238,33.947],[132.1841,33.9613],[132.2128,34.0032],[132.2014,34.1251],[132.2328,34.1269],[132.2485,34.1699],[132.2449,34.2107],[132.1586,34.2335],[132.1394,34.2847],[132.0844,34.3579],[132.0681,34.4151],[132.0679,34.4675],[132.0385,34.4689],[131.9968,34.4279],[132.0116,34.3685],[131.9699,34.3243],[131.9163,34.3365],[131.87,34.3061],[131.7982,34.3168],[131.774,34.3373],[131.7643,34.3826],[131.7942,34.4298],[131.7553,34.44],[131.6976,34.4351],[131.6703,34.5106],[131.7029,34.5318],[131.726,34.5783],[131.7181,34.6121],[131.6942,34.621],[131.6899,34.681]]],[[[132.2068,33.8569],[132.2211,33.8744],[132.2674,33.8769],[132.2795,33.8995],[132.3632,33.8804],[132.2639,33.9486],[132.2135,33.9651],[132.1827,33.9505],[132.1754,33.9019],[132.2068,33.8569]]]]},"properties":{"nam":"Yamaguchi Ken","nam_ja":"山口県","id":35}},
{"type":"Feature","geometry":{"type":"Polygon","coordinates":[[[140.2801,37.9769],[140.265,37.9065],[140.2627,37.8355],[140.2988,37.809],[140.2373,37.7467],[140.167,37.7573],[140.1406,37.7389],[140.0999,37.7405],[140.0539,37.771],[139.9927,37.7589],[139.9585,37.8141],[139.8805,37.8103],[139.8585,37.827],[139.8102,37.8035],[139.7836,37.8319],[139.7422,37.8207],[139.7164,37.8538],[139.7075,37.8562],[139.698,37.8499],[139.6811,37.8472],[139.6983,37.8489],[139.7114,37.8545],[139.7238,37.8371],[139.7415,37.8179],[139.6805,37.7751],[139.5936,37.6655],[139.5468,37.6279],[139.5713,37.5769],[139.5661,37.5461],[139.5852,37.5131],[139.4568,37.5181],[139.4143,37.5095],[139.3976,37.4601],[139.3623,37.4701],[139.2349,37.445],[139.2074,37.4278],[139.2098,37.3946],[139.2366,37.3766],[139.2119,37.286],[139.1648,37.238],[139.1949,37.2031],[139.2179,37.2097],[139.2528,37.1597],[139.2361,37.1162],[139.2564,37.0571],[139.2443,37.0146],[139.2514,36.9634],[139.232,36.9406],[139.3934,36.9109],[139.4285,36.925],[139.4599,36.9697],[139.4947,36.9682],[139.6192,37.0173],[139.6735,37.0579],[139.7529,37.0711],[139.7724,37.0865],[139.8207,37.0865],[139.831,37.1324],[139.8977,37.1536],[139.9549,37.155],[140.1007,37.1227],[140.1378,37.1064],[140.1941,37.0641],[140.2046,37.024],[140.2408,37.0005],[140.2643,36.9334],[140.2941,36.9319],[140.3257,36.8928],[140.3631,36.8851],[140.3773,36.838],[140.4385,36.8216],[140.4637,36.7918],[140.5172,36.8279],[140.5394,36.8592],[140.5926,36.8813],[140.5674,36.9139],[140.6955,36.8883],[140.7936,36.8596],[140.8178,36.9087],[140.841,36.9091],[140.8963,36.9433],[140.9207,36.9343],[140.982,36.9968],[140.9731,37.0383],[140.9994,37.1109],[141.0008,37.1837],[141.0211,37.2349],[141.0129,37.2532],[141.035,37.3575],[141.0369,37.4666],[141.0243,37.6461],[141.01,37.7448],[140.9905,37.7694],[140.9866,37.8241],[140.9597,37.8316],[140.9312,37.8963],[140.9006,37.9037],[140.8567,37.8913],[140.8526,37.7958],[140.7771,37.7813],[140.6945,37.8035],[140.6926,37.8589],[140.6613,37.9007],[140.5624,37.9114],[140.4882,37.8999],[140.475,37.947],[140.387,37.9675],[140.3461,37.9513],[140.2801,37.9769]]]},"properties":{"nam":"Fukushima Ken","nam_ja":"福島県","id":7}},
{"type":"Feature","geometry":{"type":"MultiPolygon","coordinates":[[[[137.0516,36.9595],[137.0466,37.0391],[137.0513,37.1068],[137.0136,37.0907],[137.0041,37.0574],[136.9709,37.0477],[136.9154,37.0909],[136.8711,37.0889],[136.8996,37.1375],[136.8851,37.1649],[136.918,37.2214],[137.007,37.1837],[137.0688,37.2181],[137.0989,37.2791],[137.1639,37.3048],[137.2281,37.2965],[137.2676,37.3365],[137.2374,37.3895],[137.2568,37.4318],[137.3605,37.4518],[137.3251,37.5297],[137.2607,37.5307],[137.1775,37.5001],[137.1218,37.4913],[137.0708,37.4548],[136.9243,37.3953],[136.8742,37.4073],[136.756,37.3643],[136.7249,37.3275],[136.7349,37.2862],[136.7,37.2423],[136.6701,37.1491],[136.721,37.1423],[136.7294,37.0983],[136.7226,37.0557],[136.7661,37.0032],[136.7667,36.9021],[136.7474,36.8365],[136.6691,36.7013],[136.5745,36.5865],[136.4158,36.4199],[136.3271,36.3568],[136.2993,36.3519],[136.2437,36.2956],[136.2635,36.2691],[136.3002,36.2584],[136.3318,36.2293],[136.329,36.2021],[136.3595,36.1655],[136.4092,36.1719],[136.4401,36.1374],[136.5416,36.1537],[136.603,36.1278],[136.6637,36.0676],[136.754,36.0864],[136.7779,36.1305],[136.7682,36.1643],[136.7984,36.1728],[136.8515,36.2484],[136.8145,36.2663],[136.7921,36.2991],[136.7841,36.3422],[136.8042,36.3556],[136.7953,36.3999],[136.7689,36.4297],[136.7964,36.4445],[136.7947,36.5081],[136.8169,36.5521],[136.8011,36.5696],[136.7858,36.6297],[136.8198,36.6677],[136.8151,36.6999],[136.7891,36.7185],[136.8377,36.7449],[136.8522,36.7697],[136.8487,36.8124],[136.8793,36.9068],[136.9281,36.9479],[136.9858,36.9667],[137.0516,36.9595]]],[[[136.9464,37.0915],[136.9652,37.1048],[137.0402,37.1175],[137.023,37.1441],[136.9262,37.1447],[136.9464,37.0915]]]]},"properties":{"nam":"Ishikawa Ken","nam_ja":"石川県","id":17}},
{"type":"Feature","geometry":{"type":"Polygon","coordinates":[[[136.2437,36.2956],[136.196,36.2644],[136.1232,36.2493],[136.132,36.2141],[136.0468,36.1085],[136.0338,36.1031],[136.0108,36.0341],[135.9639,35.9977],[135.9583,35.9761],[135.9968,35.9355],[135.9987,35.8821],[136.0694,35.8249],[136.1,35.7771],[136.0973,35.7241],[136.0645,35.6587],[136.0169,35.7639],[135.9797,35.7329],[135.9666,35.6607],[135.9801,35.6299],[135.9212,35.6095],[135.8658,35.6086],[135.8567,35.5819],[135.7979,35.5251],[135.7486,35.5665],[135.7132,35.569],[135.6904,35.5495],[135.7506,35.5302],[135.7359,35.4931],[135.6527,35.4785],[135.631,35.5375],[135.5756,35.4932],[135.5342,35.4889],[135.4801,35.5223],[135.4865,35.558],[135.449,35.5235],[135.4743,35.507],[135.4588,35.4725],[135.5253,35.4207],[135.534,35.3775],[135.6419,35.3668],[135.7007,35.3437],[135.7684,35.3561],[135.8071,35.3853],[135.812,35.4117],[135.8904,35.4038],[135.9398,35.5204],[135.9815,35.4868],[136.0059,35.4916],[136.0261,35.5296],[136.1051,35.5288],[136.1123,35.5755],[136.1632,35.5707],[136.1767,35.5961],[136.1342,35.6699],[136.15,35.6978],[136.2647,35.6705],[136.2806,35.6587],[136.3236,35.7169],[136.3283,35.7751],[136.3775,35.7952],[136.4331,35.7747],[136.4843,35.7753],[136.5233,35.7883],[136.5709,35.7776],[136.5897,35.7956],[136.6658,35.7852],[136.7233,35.8082],[136.7891,35.7995],[136.8026,35.8439],[136.832,35.8581],[136.7915,35.9467],[136.7535,35.9563],[136.7264,35.9959],[136.7345,36.0484],[136.754,36.0864],[136.6637,36.0676],[136.603,36.1278],[136.5416,36.1537],[136.4401,36.1374],[136.4092,36.1719],[136.3595,36.1655],[136.329,36.2021],[136.3318,36.2293],[136.3002,36.2584],[136.2635,36.2691],[136.2437,36.2956]]]},"properties":{"nam":"Fukui Ken","nam_ja":"福井県","id":18}},
{"type":"Feature","geometry":{"type":"MultiPolygon","coordinates":[[[[132.9591,34.1911],[133.0518,34.2275],[133.024,34.2955],[132.9835,34.2906],[132.9943,34.252],[132.9445,34.2085],[132.9591,34.1911]]],[[[133.1102,34.191],[133.1325,34.2127],[133.0949,34.2386],[133.0587,34.2264],[133.079,34.1938],[133.1102,34.191]]],[[[133.0343,34.1077],[133.0879,34.1577],[133.0663,34.1917],[133.0369,34.1949],[133.0147,34.1409],[133.0343,34.1077]]],[[[133.5979,34.0436],[133.5513,33.9947],[133.5112,33.9698],[133.4517,33.9835],[133.356,33.9789],[133.3247,33.9937],[133.2479,33.9753],[133.2337,33.9517],[133.1331,33.9271],[133.088,33.9502],[133.0364,34.0377],[132.9723,34.1151],[132.9444,34.138],[132.9215,34.1163],[132.9197,34.0666],[132.8568,34.0548],[132.799,34.01],[132.7696,33.9991],[132.7697,33.9598],[132.7527,33.9093],[132.7089,33.9072],[132.7096,33.8541],[132.6858,33.8073],[132.6995,33.767],[132.6514,33.6966],[132.5809,33.6521],[132.5306,33.6375],[132.4716,33.6047],[132.4172,33.5443],[132.3565,33.5162],[132.2644,33.4587],[132.2233,33.4445],[132.1711,33.4447],[132.1541,33.4069],[132.1153,33.4175],[132.083,33.3964],[132.1295,33.364],[132.1832,33.4123],[132.2798,33.4469],[132.299,33.4745],[132.3492,33.4725],[132.4077,33.4578],[132.3855,33.4199],[132.3882,33.3718],[132.4193,33.3565],[132.3688,33.3224],[132.4173,33.3033],[132.4921,33.3255],[132.4821,33.2889],[132.5508,33.2249],[132.5112,33.2131],[132.5099,33.1759],[132.4571,33.1781],[132.4241,33.1559],[132.4546,33.1367],[132.4842,33.0439],[132.5056,33.0032],[132.4692,32.9355],[132.4775,32.9046],[132.5165,32.904],[132.5139,32.9499],[132.5667,32.9471],[132.5902,32.9249],[132.6546,32.9249],[132.6779,32.9432],[132.6859,32.9772],[132.6627,33.1089],[132.6142,33.1693],[132.6338,33.1783],[132.6869,33.1349],[132.7278,33.1699],[132.7468,33.2028],[132.775,33.2062],[132.7867,33.2669],[132.8951,33.3121],[132.9015,33.3386],[132.8357,33.3995],[132.825,33.4462],[132.8474,33.4791],[132.9557,33.4663],[133.0132,33.4905],[133.063,33.5435],[133.046,33.5754],[133.0768,33.6534],[133.1161,33.6603],[133.1201,33.6911],[133.1444,33.7055],[133.1573,33.7502],[133.2569,33.7943],[133.2668,33.8225],[133.3258,33.8145],[133.3552,33.8342],[133.3914,33.8247],[133.4154,33.8397],[133.5,33.8301],[133.5391,33.8774],[133.5826,33.8676],[133.6063,33.8814],[133.6602,33.8816],[133.6872,33.9161],[133.679,34.0124],[133.5979,34.0436]]],[[[132.6002,33.9428],[132.6437,33.9609],[132.6402,34.0032],[132.5885,33.9703],[132.6002,33.9428]]]]},"properties":{"nam":"Ehime Ken","nam_ja":"愛媛県","id":38}},
{"type":"Feature","geometry":{"type":"Polygon","coordinates":[[[135.7284,34.7779],[135.7038,34.7239],[135.6727,34.7017],[135.6592,34.6025],[135.6815,34.5849],[135.6505,34.5449],[135.6766,34.5246],[135.6754,34.3995],[135.6507,34.3832],[135.673,34.2807],[135.7189,34.2601],[135.7297,34.2283],[135.7073,34.2082],[135.6678,34.2241],[135.6218,34.1596],[135.5878,34.1457],[135.5766,34.115],[135.5396,34.075],[135.58,34.0569],[135.6356,33.9908],[135.6362,33.9503],[135.6069,33.8991],[135.6475,33.8768],[135.6866,33.9039],[135.7557,33.8851],[135.8082,33.9065],[135.8576,33.8729],[135.8744,33.8615],[135.8804,33.9091],[135.9086,33.9184],[135.892,33.9417],[135.9268,33.9811],[135.9569,33.9811],[136.0032,34.0097],[136.0186,34.0359],[136.0732,34.0333],[136.1141,34.1593],[136.0926,34.19],[136.1311,34.2517],[136.0947,34.301],[136.1017,34.3365],[136.0703,34.3881],[136.0885,34.4282],[136.1279,34.4449],[136.2059,34.4485],[136.218,34.484],[136.2116,34.5288],[136.1715,34.5341],[136.1518,34.5591],[136.0841,34.5593],[136.0495,34.5801],[136.0674,34.6217],[136.0646,34.6513],[136.0855,34.6763],[136.0552,34.7384],[136.014,34.7077],[135.955,34.7477],[135.9156,34.7532],[135.89,34.7087],[135.8208,34.7119],[135.7545,34.7279],[135.7284,34.7779]]]},"properties":{"nam":"Nara Ken","nam_ja":"奈良県","id":29}},
{"type":"Feature","geometry":{"type":"MultiPolygon","coordinates":[[[[133.248,36.161],[133.2796,36.1813],[133.3268,36.1679],[133.339,36.2182],[133.3697,36.2062],[133.3842,36.2701],[133.3417,36.3107],[133.2779,36.3391],[133.2295,36.3283],[133.1952,36.3015],[133.1782,36.2497],[133.248,36.161]]],[[[132.9979,36.0389],[133.0559,36.0865],[133.0124,36.1341],[132.9476,36.0799],[132.9979,36.0389]]],[[[133.0677,36.0351],[133.1375,36.0824],[133.1258,36.1112],[133.0711,36.1058],[133.0677,36.0351]]],[[[133.2441,35.5491],[133.3109,35.5601],[133.3063,35.5757],[133.219,35.5784],[133.1512,35.5595],[133.1115,35.5978],[133.0681,35.5839],[133.0265,35.5389],[132.9677,35.5422],[132.9655,35.5148],[132.8644,35.5133],[132.7813,35.4798],[132.7269,35.47],[132.71,35.4418],[132.6505,35.4408],[132.6356,35.4183],[132.6715,35.4011],[132.6643,35.3365],[132.626,35.2873],[132.529,35.2516],[132.4466,35.1976],[132.4209,35.189],[132.3859,35.1287],[132.3315,35.0975],[132.3085,35.0566],[132.2368,35.0345],[132.1464,34.9657],[132.1048,34.9451],[132.0647,34.9076],[132.059,34.8773],[132.0293,34.875],[131.943,34.7911],[131.8986,34.7748],[131.8441,34.7087],[131.7951,34.688],[131.7027,34.6724],[131.6899,34.681],[131.6942,34.621],[131.7181,34.6121],[131.726,34.5783],[131.7029,34.5318],[131.6703,34.5106],[131.6976,34.4351],[131.7553,34.44],[131.7942,34.4298],[131.7643,34.3826],[131.774,34.3373],[131.7982,34.3168],[131.87,34.3061],[131.9163,34.3365],[131.9699,34.3243],[132.0116,34.3685],[131.9968,34.4279],[132.0385,34.4689],[132.0679,34.4675],[132.0359,34.5022],[132.0527,34.5299],[132.0838,34.5379],[132.1152,34.5667],[132.1157,34.6127],[132.1612,34.6833],[132.1422,34.7155],[132.2215,34.7503],[132.2593,34.8065],[132.298,34.7771],[132.3718,34.8012],[132.398,34.7826],[132.4346,34.8206],[132.4844,34.7973],[132.5374,34.7949],[132.6151,34.8433],[132.7099,34.8499],[132.6999,34.8821],[132.663,34.8899],[132.6505,34.9199],[132.6845,34.9507],[132.7198,34.9481],[132.7872,35.0048],[132.827,35.0612],[132.8635,35.0972],[132.9499,35.0755],[132.9902,35.1014],[133.033,35.0683],[133.0603,35.0814],[133.1357,35.0743],[133.1397,35.1183],[133.1567,35.1489],[133.1944,35.1699],[133.1778,35.2321],[133.2507,35.2587],[133.3099,35.2685],[133.2919,35.3197],[133.3205,35.4069],[133.3021,35.4351],[133.2215,35.4815],[133.1979,35.5264],[133.2441,35.5491]]]]},"properties":{"nam":"Shimane Ken","nam_ja":"島根県","id":32}},
{"type":"Feature","geometry":{"type":"Polygon","coordinates":[[[141.6831,40.4509],[141.6547,40.4289],[141.587,40.4075],[141.587,40.3813],[141.5374,40.3478],[141.4809,40.3765],[141.4357,40.3745],[141.3514,40.3315],[141.3174,40.3733],[141.2654,40.3504],[141.2191,40.3167],[141.1743,40.3103],[141.1009,40.2815],[141.0771,40.2529],[141.016,40.219],[140.9805,40.2201],[140.9553,40.2482],[140.9053,40.2222],[140.8601,40.1699],[140.882,40.1509],[140.8718,40.0912],[140.8447,40.0737],[140.8552,40.0439],[140.8465,39.9745],[140.8781,39.8747],[140.8237,39.8843],[140.7848,39.8718],[140.7835,39.8291],[140.8472,39.7931],[140.7831,39.7305],[140.8229,39.6882],[140.8047,39.612],[140.7279,39.5561],[140.7409,39.5348],[140.714,39.4984],[140.7243,39.4807],[140.677,39.4472],[140.6793,39.4181],[140.6541,39.3909],[140.7042,39.343],[140.6933,39.3025],[140.7182,39.2729],[140.7695,39.2521],[140.7702,39.1244],[140.7529,39.0865],[140.8007,39.0773],[140.7947,39.0291],[140.7645,39.0001],[140.7739,38.9585],[140.8262,38.9635],[140.9158,38.9172],[140.9407,38.916],[140.9918,38.8755],[141.0939,38.8881],[141.1401,38.8779],[141.1463,38.8559],[141.1039,38.8287],[141.1424,38.8111],[141.1397,38.79],[141.2575,38.7629],[141.2736,38.7969],[141.3079,38.8203],[141.3531,38.8128],[141.4223,38.7803],[141.4537,38.8116],[141.4514,38.8767],[141.4894,38.9075],[141.491,38.9985],[141.5681,38.9957],[141.6322,38.971],[141.6251,39.0011],[141.6672,39.006],[141.6694,38.9759],[141.7439,38.9927],[141.7099,39.0247],[141.8188,39.0236],[141.8479,39.0387],[141.8101,39.0934],[141.8115,39.1121],[141.8838,39.0901],[141.9149,39.1075],[141.8375,39.1462],[141.8851,39.1555],[141.9229,39.1849],[141.9311,39.2215],[141.8895,39.2742],[141.8995,39.3339],[141.9393,39.387],[141.9818,39.4095],[142.0296,39.4161],[142.0581,39.4651],[142.0371,39.4834],[141.9732,39.4415],[141.957,39.4757],[141.9932,39.4837],[142.0662,39.5343],[142.0692,39.5609],[142.0371,39.5735],[142.0175,39.6551],[141.9862,39.6829],[141.9849,39.7353],[141.9968,39.7783],[141.9721,39.8829],[141.9386,39.9329],[141.9564,39.9803],[141.9097,40.0107],[141.8757,40.0495],[141.8515,40.0561],[141.827,40.1008],[141.8604,40.1645],[141.8052,40.1837],[141.8341,40.2205],[141.8167,40.2707],[141.775,40.3235],[141.7542,40.3693],[141.6831,40.4509]]]},"properties":{"nam":"Iwate Ken","nam_ja":"岩手県","id":3}},
{"type":"Feature","geometry":{"type":"Polygon","coordinates":[[[134.3695,35.6146],[134.3341,35.5925],[134.3018,35.5924],[134.2672,35.5587],[134.1218,35.5268],[134.0446,35.5187],[133.9627,35.5229],[133.8953,35.5075],[133.79,35.5009],[133.6684,35.5069],[133.5897,35.532],[133.4968,35.5157],[133.4456,35.494],[133.4248,35.4602],[133.3889,35.4539],[133.2876,35.4812],[133.2509,35.5158],[133.2441,35.5491],[133.1979,35.5264],[133.2215,35.4815],[133.3021,35.4351],[133.3205,35.4069],[133.2919,35.3197],[133.3099,35.2685],[133.2507,35.2587],[133.1778,35.2321],[133.1944,35.1699],[133.1567,35.1489],[133.1397,35.1183],[133.1357,35.0743],[133.1424,35.0652],[133.2506,35.0781],[133.2684,35.0578],[133.288,35.096],[133.4029,35.1143],[133.3974,35.1649],[133.501,35.1927],[133.5143,35.2208],[133.5659,35.2554],[133.5773,35.3154],[133.5957,35.3451],[133.7468,35.3183],[133.7973,35.2941],[133.8176,35.2527],[133.8433,35.2532],[133.8627,35.293],[133.9249,35.3075],[133.9316,35.3338],[133.9968,35.3528],[134.0101,35.3076],[134.0696,35.2972],[134.0972,35.3059],[134.1387,35.279],[134.1534,35.1949],[134.1937,35.1895],[134.2664,35.2085],[134.3208,35.2018],[134.338,35.2204],[134.4022,35.241],[134.434,35.2295],[134.5146,35.2773],[134.504,35.3365],[134.5133,35.3539],[134.4719,35.383],[134.4795,35.4253],[134.4398,35.4428],[134.425,35.5419],[134.4078,35.5877],[134.3695,35.6146]]]},"properties":{"nam":"Tottori Ken","nam_ja":"鳥取県","id":31}},
{"type":"Feature","geometry":{"type":"Polygon","coordinates":[[[134.4397,34.2079],[134.4184,34.1575],[134.3585,34.1839],[134.2963,34.1699],[134.2594,34.1833],[134.1456,34.1649],[134.1218,34.1187],[134.0503,34.1179],[134.0005,34.0749],[133.9467,34.0921],[133.9214,34.1142],[133.8536,34.1037],[133.7825,34.08],[133.679,34.0124],[133.6872,33.9161],[133.6602,33.8816],[133.6768,33.8586],[133.7468,33.8368],[133.8386,33.8446],[133.8718,33.8101],[133.9131,33.7915],[133.9483,33.8064],[133.9513,33.8293],[134.033,33.8089],[134.057,33.7795],[134.0668,33.6885],[134.1218,33.6959],[134.1743,33.6836],[134.1492,33.6291],[134.1953,33.5606],[134.2733,33.5605],[134.3052,33.5485],[134.3108,33.5763],[134.3633,33.5889],[134.3632,33.6287],[134.4184,33.6656],[134.438,33.663],[134.5658,33.7337],[134.5797,33.7699],[134.7468,33.8319],[134.6679,33.8439],[134.667,33.8791],[134.6985,33.9063],[134.6978,33.9501],[134.6677,33.9622],[134.6427,34.0032],[134.6182,33.9868],[134.5879,34.0299],[134.6037,34.1197],[134.623,34.1813],[134.5578,34.2216],[134.4968,34.2245],[134.4397,34.2079]]]},"properties":{"nam":"Tokushima Ken","nam_ja":"徳島県","id":36}},
{"type":"Feature","geometry":{"type":"MultiPolygon","coordinates":[[[[130.1578,32.0898],[130.1787,32.1371],[130.1903,32.198],[130.1754,32.2211],[130.1205,32.2122],[130.0987,32.1746],[130.1107,32.1258],[130.1578,32.0898]]],[[[130.7197,32.1006],[130.6218,32.1558],[130.5046,32.1405],[130.4748,32.1221],[130.4035,32.1197],[130.36,32.1678],[130.3514,32.1358],[130.3081,32.108],[130.2656,32.1285],[130.2092,32.1244],[130.1746,32.1045],[130.2035,32.0693],[130.2027,32.0407],[130.1793,31.9983],[130.2092,31.9693],[130.2231,31.9115],[130.166,31.7938],[130.1875,31.7579],[130.2518,31.7309],[130.3268,31.6335],[130.3338,31.5865],[130.3213,31.5119],[130.2716,31.4259],[130.2245,31.4019],[130.1857,31.4101],[130.1577,31.4397],[130.1343,31.4165],[130.1893,31.3545],[130.19,31.3157],[130.2152,31.2511],[130.3071,31.2665],[130.3531,31.2501],[130.4451,31.2525],[130.4814,31.2396],[130.5143,31.1973],[130.5871,31.1699],[130.6264,31.1815],[130.6549,31.2177],[130.6581,31.2707],[130.6218,31.2755],[130.5704,31.3138],[130.5245,31.4137],[130.5146,31.464],[130.5415,31.5393],[130.5694,31.5807],[130.5607,31.5957],[130.618,31.6565],[130.6151,31.6995],[130.6861,31.7345],[130.7302,31.7093],[130.7939,31.7018],[130.8219,31.656],[130.8001,31.6317],[130.7864,31.5865],[130.7642,31.5623],[130.7101,31.5662],[130.7157,31.6029],[130.6952,31.6248],[130.627,31.621],[130.5912,31.5899],[130.6361,31.5459],[130.6974,31.5553],[130.6976,31.4629],[130.7567,31.4213],[130.8018,31.3365],[130.7853,31.2467],[130.7529,31.2103],[130.7655,31.1796],[130.731,31.1175],[130.713,31.1145],[130.676,31.0627],[130.6686,31.0087],[130.7438,31.059],[130.7925,31.0817],[130.8718,31.0948],[130.9598,31.1372],[131.0018,31.1901],[131.0162,31.2278],[131.0659,31.2281],[131.108,31.2603],[131.073,31.2915],[131.1039,31.3277],[131.0171,31.3565],[131.0185,31.3913],[131.0739,31.4554],[131.1117,31.4731],[131.1595,31.4616],[131.176,31.5045],[131.1986,31.5143],[131.2038,31.5785],[131.1632,31.637],[131.1276,31.6263],[131.0783,31.6597],[131.0563,31.6339],[131.0251,31.6662],[131.0165,31.7445],[130.99,31.7747],[130.9311,31.7854],[130.8761,31.8154],[130.8974,31.8868],[130.8817,31.9199],[130.8155,31.941],[130.7836,31.9786],[130.7774,32.0139],[130.7348,32.0479],[130.703,32.0575],[130.7197,32.1006]]],[[[129.8713,31.8006],[129.9067,31.8206],[129.9094,31.8428],[129.8606,31.8786],[129.8345,31.8821],[129.8203,31.8437],[129.862,31.8343],[129.8713,31.8006]]],[[[129.7129,31.6216],[129.7371,31.6552],[129.7468,31.7377],[129.7064,31.7231],[129.6811,31.6716],[129.6571,31.6585],[129.6828,31.6241],[129.7129,31.6216]]],[[[130.9483,30.6352],[130.9502,30.5865],[130.9028,30.5032],[130.8718,30.4659],[130.8568,30.3694],[130.8713,30.3444],[130.962,30.3831],[130.9769,30.4383],[130.9577,30.4594],[130.9968,30.5441],[131.0313,30.5666],[131.0541,30.6057],[131.0551,30.6699],[131.0775,30.6969],[131.071,30.7636],[131.0807,30.7784],[131.0601,30.8351],[131.0022,30.7837],[131,30.7475],[130.9397,30.6699],[130.9483,30.6352]]],[[[130.2095,30.4215],[130.2621,30.4474],[130.1989,30.4821],[130.1541,30.4848],[130.2095,30.4215]]],[[[130.5216,30.2263],[130.602,30.2511],[130.6572,30.3066],[130.6692,30.3767],[130.6362,30.401],[130.5973,30.4102],[130.5687,30.4332],[130.4691,30.4607],[130.4164,30.3954],[130.3759,30.3725],[130.4355,30.2403],[130.5216,30.2263]]],[[[129.8718,29.8161],[129.9161,29.8244],[129.8873,29.8693],[129.8494,29.8826],[129.8399,29.8445],[129.8718,29.8161]]],[[[129.7059,29.6022],[129.7373,29.6372],[129.7418,29.6692],[129.6845,29.6537],[129.7059,29.6022]]],[[[129.6453,28.4334],[129.5783,28.4671],[129.5431,28.4619],[129.4881,28.4119],[129.4419,28.3823],[129.4017,28.3825],[129.3657,28.3541],[129.3373,28.3671],[129.3027,28.3293],[129.2636,28.3266],[129.2153,28.2976],[129.214,28.2563],[129.1711,28.2393],[129.2395,28.2173],[129.289,28.1889],[129.2994,28.1494],[129.3318,28.1292],[129.4029,28.1575],[129.4075,28.1829],[129.4655,28.2126],[129.4545,28.2321],[129.4546,28.2929],[129.5352,28.3061],[129.6102,28.3955],[129.708,28.4207],[129.7211,28.4581],[129.6748,28.5256],[129.656,28.4995],[129.6731,28.461],[129.6453,28.4334]]],[[[129.9445,28.2739],[129.9767,28.2872],[130.0075,28.3364],[129.9721,28.3416],[129.9128,28.3104],[129.9445,28.2739]]],[[[129.3174,28.0615],[129.3382,28.0754],[129.3248,28.1089],[129.2602,28.1335],[129.202,28.1807],[129.1852,28.1595],[129.2292,28.0893],[129.2604,28.0792],[129.3211,28.0952],[129.3174,28.0615]]],[[[128.902,27.7525],[128.8811,27.7201],[128.9156,27.6953],[128.9254,27.6651],[128.986,27.6696],[129.035,27.7713],[128.9676,27.8177],[128.9747,27.872],[128.9646,27.8919],[128.8887,27.8811],[128.8781,27.8256],[128.902,27.7525]]],[[[128.5763,27.4005],[128.5349,27.4046],[128.5193,27.3715],[128.5563,27.3288],[128.5915,27.3365],[128.6346,27.3652],[128.6765,27.4135],[128.5763,27.4005]]]]},"properties":{"nam":"Kagoshima Ken","nam_ja":"鹿児島県","id":46}},
{"type":"Feature","geometry":{"type":"MultiPolygon","coordinates":[[[[139.5482,38.5534],[139.4574,38.3965],[139.4509,38.36],[139.4504,38.2389],[139.4274,38.1773],[139.3537,38.0865],[139.3138,38.0495],[139.2305,37.9946],[139.1533,37.9684],[139.0737,37.9519],[138.8654,37.8365],[138.8205,37.7947],[138.7847,37.7163],[138.7678,37.6475],[138.7122,37.5581],[138.6546,37.5196],[138.554,37.3783],[138.434,37.3199],[138.2963,37.2116],[138.226,37.1723],[138.1358,37.1638],[138.1017,37.1744],[138.051,37.1303],[138.0056,37.1151],[137.909,37.06],[137.8322,37.0411],[137.7308,37.0032],[137.6349,36.9803],[137.6675,36.9503],[137.711,36.9446],[137.7136,36.8915],[137.7332,36.8701],[137.7335,36.8301],[137.7625,36.7664],[137.82,36.7992],[137.8764,36.8672],[137.8714,36.9023],[137.9215,36.9199],[137.9916,36.9106],[138.0318,36.8899],[138.0033,36.8267],[138.0694,36.8049],[138.1152,36.8505],[138.1659,36.8448],[138.2144,36.8677],[138.2961,36.8563],[138.2984,36.9131],[138.3431,36.9209],[138.3947,36.9973],[138.4563,37.0198],[138.5246,37.0305],[138.5658,37.0214],[138.5864,36.9874],[138.5839,36.9283],[138.6267,36.8822],[138.6934,36.8523],[138.6956,36.8075],[138.6723,36.7707],[138.6957,36.7386],[138.7263,36.7638],[138.7672,36.7466],[138.8261,36.7717],[138.8215,36.8171],[138.8549,36.8119],[138.9162,36.851],[138.9321,36.8937],[138.979,36.8911],[138.9677,36.9302],[138.9697,36.9815],[139.047,36.9875],[139.0902,37.0196],[139.097,37.0588],[139.1792,36.9914],[139.1803,36.9647],[139.232,36.9406],[139.2514,36.9634],[139.2443,37.0146],[139.2564,37.0571],[139.2361,37.1162],[139.2528,37.1597],[139.2179,37.2097],[139.1949,37.2031],[139.1648,37.238],[139.2119,37.286],[139.2366,37.3766],[139.2098,37.3946],[139.2074,37.4278],[139.2349,37.445],[139.3623,37.4701],[139.3976,37.4601],[139.4143,37.5095],[139.4568,37.5181],[139.5852,37.5131],[139.5661,37.5461],[139.5713,37.5769],[139.5468,37.6279],[139.5936,37.6655],[139.6805,37.7751],[139.7415,37.8179],[139.7238,37.8371],[139.7114,37.8545],[139.6983,37.8489],[139.6811,37.8472],[139.6294,37.894],[139.6437,37.9948],[139.6933,38.1155],[139.6826,38.1699],[139.7127,38.2066],[139.7583,38.1933],[139.8605,38.2317],[139.9001,38.2761],[139.8752,38.317],[139.817,38.3559],[139.7468,38.3619],[139.7225,38.3943],[139.7135,38.4701],[139.7219,38.4966],[139.6016,38.5227],[139.5482,38.5534]]],[[[138.2449,37.8027],[138.3056,37.8271],[138.3415,37.8263],[138.3831,37.8456],[138.4897,37.9199],[138.5464,38.0083],[138.5716,38.0651],[138.5607,38.0865],[138.4821,38.0624],[138.4398,38.0787],[138.4355,38.1165],[138.4928,38.204],[138.5094,38.2684],[138.5146,38.3325],[138.4535,38.3085],[138.439,38.2655],[138.3261,38.1942],[138.2331,38.061],[138.2367,37.9719],[138.2744,38.0032],[138.3254,37.994],[138.3431,37.9645],[138.2849,37.9199],[138.2823,37.8677],[138.2643,37.8443],[138.206,37.8281],[138.2449,37.8027]]]]},"properties":{"nam":"Niigata Ken","nam_ja":"新潟県","id":15}},
{"type":"Feature","geometry":{"type":"Polygon","coordinates":[[[133.6602,33.8816],[133.6063,33.8814],[133.5826,33.8676],[133.5391,33.8774],[133.5,33.8301],[133.4154,33.8397],[133.3914,33.8247],[133.3552,33.8342],[133.3258,33.8145],[133.2668,33.8225],[133.2569,33.7943],[133.1573,33.7502],[133.1444,33.7055],[133.1201,33.6911],[133.1161,33.6603],[133.0768,33.6534],[133.046,33.5754],[133.063,33.5435],[133.0132,33.4905],[132.9557,33.4663],[132.8474,33.4791],[132.825,33.4462],[132.8357,33.3995],[132.9015,33.3386],[132.8951,33.3121],[132.7867,33.2669],[132.775,33.2062],[132.7468,33.2028],[132.7278,33.1699],[132.6869,33.1349],[132.6338,33.1783],[132.6142,33.1693],[132.6627,33.1089],[132.6859,32.9772],[132.6779,32.9432],[132.6546,32.9249],[132.7017,32.9192],[132.7124,32.9023],[132.661,32.8559],[132.644,32.82],[132.6477,32.7755],[132.7109,32.7983],[132.7909,32.7477],[132.8505,32.7853],[132.9245,32.7827],[132.9706,32.7468],[133.0217,32.7263],[133.0011,32.7873],[132.9658,32.7994],[132.9486,32.8565],[133.0087,32.8819],[132.9933,32.9304],[133.0111,33.0151],[133.0396,33.0379],[133.0928,33.0355],[133.1043,33.0725],[133.141,33.0971],[133.17,33.1502],[133.2558,33.2261],[133.2379,33.2959],[133.2794,33.384],[133.3317,33.3724],[133.3464,33.4002],[133.3946,33.4012],[133.4366,33.4387],[133.5621,33.4963],[133.5649,33.5145],[133.729,33.5381],[133.7686,33.5155],[133.8196,33.5151],[133.9343,33.4866],[133.9592,33.4422],[134.0306,33.4122],[134.0387,33.3705],[134.1021,33.327],[134.1627,33.2649],[134.187,33.293],[134.2096,33.3944],[134.2413,33.4631],[134.3052,33.5485],[134.2733,33.5605],[134.1953,33.5606],[134.1492,33.6291],[134.1743,33.6836],[134.1218,33.6959],[134.0668,33.6885],[134.057,33.7795],[134.033,33.8089],[133.9513,33.8293],[133.9483,33.8064],[133.9131,33.7915],[133.8718,33.8101],[133.8386,33.8446],[133.7468,33.8368],[133.6768,33.8586],[133.6602,33.8816]]]},"properties":{"nam":"Kochi Ken","nam_ja":"高知県","id":39}},
{"type":"Feature","geometry":{"type":"Polygon","coordinates":[[[131.8851,32.7457],[131.8471,32.7361],[131.8439,32.7751],[131.8579,32.8213],[131.793,32.8219],[131.7368,32.8329],[131.712,32.7739],[131.6682,32.7667],[131.5916,32.7751],[131.5692,32.755],[131.5077,32.774],[131.5168,32.8003],[131.4751,32.8365],[131.4204,32.8117],[131.359,32.8039],[131.3286,32.8329],[131.2649,32.8262],[131.2468,32.8006],[131.2312,32.7441],[131.1788,32.7111],[131.114,32.6388],[131.1193,32.6057],[131.0991,32.5785],[131.0537,32.5877],[131.0062,32.4925],[131.019,32.4395],[131.0665,32.4074],[131.0735,32.3575],[131.1105,32.3285],[131.0462,32.244],[131.0997,32.2014],[131.0963,32.1528],[131.0025,32.1693],[130.9736,32.1216],[130.9328,32.1162],[130.9125,32.1306],[130.8565,32.0995],[130.7197,32.1006],[130.703,32.0575],[130.7348,32.0479],[130.7774,32.0139],[130.7836,31.9786],[130.8155,31.941],[130.8817,31.9199],[130.8974,31.8868],[130.8761,31.8154],[130.9311,31.7854],[130.99,31.7747],[131.0165,31.7445],[131.0251,31.6662],[131.0563,31.6339],[131.0783,31.6597],[131.1276,31.6263],[131.1632,31.637],[131.2038,31.5785],[131.1986,31.5143],[131.176,31.5045],[131.1595,31.4616],[131.2035,31.4535],[131.2411,31.4267],[131.255,31.3802],[131.3086,31.3903],[131.3707,31.4307],[131.3617,31.4699],[131.388,31.4847],[131.3811,31.5552],[131.4235,31.6089],[131.4614,31.632],[131.4495,31.6798],[131.4817,31.7857],[131.4537,31.8181],[131.4539,31.8695],[131.483,31.9801],[131.5919,32.3065],[131.616,32.34],[131.642,32.407],[131.6812,32.4352],[131.6496,32.4573],[131.7277,32.4926],[131.6829,32.5164],[131.6828,32.5444],[131.7081,32.5865],[131.7418,32.5923],[131.7724,32.6339],[131.7627,32.6585],[131.8152,32.6877],[131.8588,32.7331],[131.8851,32.7457]]]},"properties":{"nam":"Miyazaki Ken","nam_ja":"宮崎県","id":45}},
{"type":"Feature","geometry":{"type":"Polygon","coordinates":[[[139.131,35.6718],[139.1178,35.6531],[139.1343,35.6163],[139.1291,35.5637],[139.0852,35.5121],[139.0266,35.4808],[138.9543,35.4599],[138.928,35.4368],[138.9162,35.4005],[138.9954,35.4031],[139.0187,35.3298],[139.0048,35.2897],[138.9752,35.2617],[138.9876,35.2012],[139.0286,35.1699],[139.0305,35.1497],[139.1115,35.1413],[139.1452,35.1515],[139.1435,35.2327],[139.2108,35.2781],[139.3301,35.3121],[139.438,35.3189],[139.5253,35.3017],[139.5449,35.3081],[139.6001,35.238],[139.6159,35.1899],[139.6151,35.1389],[139.6643,35.1584],[139.6565,35.185],[139.6852,35.2065],[139.725,35.2119],[139.7437,35.2591],[139.6968,35.2647],[139.6409,35.3031],[139.657,35.3416],[139.6455,35.4029],[139.6697,35.4027],[139.6907,35.4392],[139.6361,35.4521],[139.6448,35.4758],[139.6818,35.4782],[139.7898,35.5267],[139.7575,35.5442],[139.7034,35.5365],[139.6678,35.5865],[139.6192,35.6135],[139.5254,35.6427],[139.4904,35.6045],[139.5051,35.5751],[139.458,35.5281],[139.3986,35.5844],[139.3414,35.6048],[139.2329,35.6127],[139.2009,35.6525],[139.168,35.6511],[139.131,35.6718]]]},"properties":{"nam":"Kanagawa Ken","nam_ja":"神奈川県","id":14}}
]}