{"type":"FeatureCollection", "features": [
{"type":"Feature","geometry":{"type":"Polygon","coordinates":[[[135.8608,35.283],[135.8585,35.2784],[135.8545,35.2753],[135.8551,35.2722],[135.8525,35.269],[135.8475,35.2667],[135.8447,35.2613],[135.8461,35.2571],[135.8424,35.2532],[135.844,35.2517],[135.8402,35.2479],[135.8399,35.2439],[135.8352,35.2396],[135.8375,35.2375],[135.837,35.2315],[135.8374,35.226],[135.8309,35.2228],[135.8293,35.2205],[135.8298,35.2161],[135.8325,35.2143],[135.8311,35.2104],[135.8355,35.2067],[135.8352,35.2022],[135.8398,35.1914],[135.8419,35.1898],[135.8408,35.1859],[135.8406,35.1801],[135.8431,35.1789],[135.8424,35.1739],[135.8468,35.1624],[135.8503,35.1603],[135.8562,35.1594],[135.8568,35.1536],[135.8546,35.1527],[135.8526,35.1462],[135.8487,35.1419],[135.8502,35.1352],[135.8523,35.1343],[135.8496,35.1269],[135.8498,35.1205],[135.8481,35.1189],[135.8474,35.1143],[135.845,35.1143],[135.8433,35.1099],[135.8429,35.1025],[135.8379,35.0974],[135.8375,35.0945],[135.835,35.0913],[135.8398,35.0861],[135.8383,35.0791],[135.8342,35.0761],[135.8319,35.0715],[135.8344,35.0678],[135.8358,35.0623],[135.8349,35.0556],[135.8316,35.0526],[135.827,35.0539],[135.8211,35.0494],[135.8159,35.0474],[135.8154,35.0422],[135.8217,35.0361],[135.8246,35.0356],[135.8256,35.032],[135.8281,35.0284],[135.8264,35.0236],[135.83,35.0214],[135.8345,35.0221],[135.8355,35.0123],[135.8317,35.0117],[135.8249,35.0124],[135.8241,35.0088],[135.8268,35.0084],[135.8327,35.0094],[135.8341,35.0045],[135.8366,35.0012],[135.8326,34.9991],[135.8275,34.9911],[135.8423,34.9899],[135.8493,34.9917],[135.8501,34.99],[135.8491,34.9848],[135.855,34.9847],[135.8568,34.98],[135.8541,34.9766],[135.8548,34.975],[135.8523,34.9713],[135.8556,34.9699],[135.8561,34.9671],[135.8632,34.9606],[135.8639,34.9576],[135.8754,34.9537],[135.8757,34.9506],[135.8787,34.9472],[135.876,34.9432],[135.8767,34.9403],[135.8799,34.9345],[135.8707,34.926],[135.8719,34.9239],[135.8691,34.9202],[135.8694,34.9163],[135.8712,34.9151],[135.8712,34.9099],[135.8631,34.9037],[135.8673,34.8969],[135.8675,34.8933],[135.8759,34.8863],[135.8814,34.8837],[135.8842,34.8845],[135.8887,34.8813],[135.8855,34.8782],[135.8887,34.8755],[135.8997,34.8714],[135.9095,34.8769],[135.9099,34.8804],[135.9127,34.8835],[135.9188,34.8848],[135.924,34.8849],[135.9308,34.8886],[135.9329,34.8878],[135.936,34.8916],[135.9403,34.8924],[135.9396,34.8885],[135.9412,34.8847],[135.9401,34.8803],[135.9432,34.8782],[135.9472,34.8777],[135.9496,34.8796],[135.9534,34.8787],[135.9554,34.8806],[135.9643,34.88],[135.9664,34.8831],[135.9675,34.8912],[135.9718,34.8937],[135.9747,34.8917],[135.9748,34.8885],[135.9806,34.8898],[135.9875,34.8898],[135.9869,34.8976],[135.9917,34.9009],[135.9927,34.9087],[135.9994,34.9093],[136.0028,34.9144],[136.0116,34.9202],[136.0155,34.9175],[136.0213,34.9176],[136.0234,34.9215],[136.0355,34.9239],[136.0384,34.9215],[136.0418,34.9235],[136.0424,34.9305],[136.0377,34.9334],[136.0331,34.9382],[136.0396,34.9423],[136.0411,34.9453],[136.0377,34.943],[136.03,34.9397],[136.0261,34.9417],[136.0169,34.9438],[136.0114,34.9511],[136.0101,34.9546],[136.0036,34.9568],[136.001,34.9609],[136.0058,34.9612],[136.0093,34.9631],[136.014,34.9626],[136.0139,34.9659],[136.0116,34.97],[136.0103,34.9755],[136.0079,34.9785],[136.0041,34.9801],[135.9988,34.9769],[135.9894,34.98],[135.9873,34.9781],[135.9779,34.9801],[135.9792,34.9834],[135.9762,34.9849],[135.967,34.9831],[135.9654,34.9758],[135.963,34.9764],[135.9583,34.9725],[135.9549,34.9738],[135.9534,34.9717],[135.9501,34.9722],[135.9465,34.981],[135.9431,34.9864],[135.9397,34.9885],[135.9398,34.9924],[135.9303,34.9964],[135.93,34.9942],[135.9189,34.9963],[135.9088,34.9954],[135.9029,34.9924],[135.9006,34.9974],[135.9013,35.0024],[135.8982,35.0125],[135.8937,35.0224],[135.8912,35.0235],[135.8879,35.0324],[135.888,35.0353],[135.8922,35.0446],[135.8981,35.0527],[135.9115,35.0697],[135.9147,35.0794],[135.9232,35.0881],[135.9314,35.1095],[135.9356,35.1155],[135.9352,35.1212],[135.9384,35.1262],[135.9403,35.1375],[135.9593,35.1472],[135.9726,35.181],[135.9824,35.1866],[135.9958,35.1902],[136.0108,35.2249],[136.0163,35.2313],[135.9937,35.2644],[135.9911,35.2671],[135.988,35.267],[135.9835,35.2723],[135.9768,35.2723],[135.9718,35.2746],[135.9653,35.2747],[135.9618,35.2764],[135.9565,35.2776],[135.955,35.2756],[135.9487,35.2742],[135.9442,35.2671],[135.9406,35.2672],[135.937,35.2605],[135.9322,35.261],[135.9279,35.2583],[135.9253,35.2597],[135.919,35.2606],[135.9171,35.264],[135.9103,35.2641],[135.9045,35.271],[135.9061,35.2751],[135.8971,35.2782],[135.8875,35.2836],[135.883,35.2846],[135.8757,35.2831],[135.8742,35.2817],[135.8697,35.282],[135.866,35.2802],[135.8608,35.283]]]},"properties":{"N03_001":"滋賀県","N03_002":"","N03_003":"","N03_004":"大津市","N03_007":"25201"}},
{"type":"Feature","geometry":{"type":"Polygon","coordinates":[[[136.0852,35.2518],[136.1121,35.2164],[136.1213,35.2128],[136.1296,35.2131],[136.136,35.2114],[136.1397,35.2072],[136.1486,35.2066],[136.1542,35.2055],[136.1637,35.2056],[136.167,35.2044],[136.1757,35.1965],[136.1809,35.1935],[136.1916,35.1902],[136.1952,35.1986],[136.2004,35.1949],[136.2053,35.1991],[136.2161,35.1936],[136.2135,35.1971],[136.2169,35.2011],[136.2169,35.2029],[136.2212,35.207],[136.2239,35.2122],[136.2217,35.2133],[136.2258,35.2186],[136.2376,35.2128],[136.2413,35.2177],[136.2446,35.2155],[136.2467,35.2178],[136.2507,35.2171],[136.253,35.2203],[136.2503,35.226],[136.2577,35.2284],[136.2615,35.2305],[136.2673,35.2275],[136.2722,35.226],[136.275,35.2295],[136.2699,35.2326],[136.2746,35.2403],[136.2768,35.2395],[136.2794,35.2424],[136.2817,35.2404],[136.2881,35.2415],[136.289,35.244],[136.2945,35.2466],[136.2969,35.2491],[136.2968,35.2532],[136.3006,35.2572],[136.3076,35.2576],[136.3166,35.2656],[136.3211,35.2677],[136.3253,35.2673],[136.3295,35.2653],[136.3353,35.2651],[136.3387,35.264],[136.3454,35.2686],[136.3516,35.2696],[136.3515,35.2741],[136.3462,35.2863],[136.3431,35.287],[136.3402,35.2896],[136.3359,35.29],[136.3314,35.2918],[136.3303,35.2953],[136.3261,35.2957],[136.3285,35.2916],[136.325,35.2881],[136.3256,35.2839],[136.3232,35.2799],[136.3189,35.2809],[136.3174,35.2888],[136.3137,35.293],[136.3095,35.2944],[136.3054,35.2941],[136.3026,35.2958],[136.3008,35.299],[136.2915,35.2994],[136.2882,35.3016],[136.2862,35.2971],[136.2795,35.2963],[136.2699,35.2968],[136.2686,35.2942],[136.265,35.2951],[136.2606,35.2945],[136.257,35.3004],[136.2441,35.2956],[136.216,35.3037],[136.2133,35.3323],[136.2098,35.3387],[136.1485,35.356],[136.1458,35.3499],[136.1528,35.2687],[136.1222,35.2559],[136.1182,35.2556],[136.0837,35.2589],[136.0852,35.2518]]]},"properties":{"N03_001":"滋賀県","N03_002":"","N03_003":"","N03_004":"彦根市","N03_007":"25202"}},
{"type":"Feature","geometry":{"type":"Polygon","coordinates":[[[136.1056,35.5288],[136.1037,35.521],[136.1051,35.515],[136.1013,35.5107],[136.0986,35.5001],[136.0999,35.4984],[136.1012,35.4903],[136.0995,35.4832],[136.0996,35.48],[136.0962,35.4784],[136.0971,35.4747],[136.0948,35.4733],[136.0954,35.4694],[136.0917,35.4653],[136.0943,35.4614],[136.1016,35.4606],[136.1158,35.4546],[136.1179,35.4381],[136.1164,35.4327],[136.0947,35.4101],[136.0983,35.3928],[136.1451,35.3576],[136.1485,35.356],[136.2098,35.3387],[136.2257,35.3479],[136.243,35.3497],[136.2504,35.3527],[136.2775,35.3508],[136.2964,35.3546],[136.2981,35.3503],[136.3058,35.3522],[136.3069,35.3488],[136.3102,35.3465],[136.3111,35.3426],[136.3167,35.3441],[136.3176,35.3459],[136.3218,35.3454],[136.325,35.3471],[136.3265,35.3592],[136.3283,35.3607],[136.3293,35.365],[136.3341,35.3677],[136.3339,35.372],[136.3375,35.3792],[136.3352,35.3858],[136.3357,35.3911],[136.3342,35.3926],[136.3321,35.3997],[136.3331,35.4038],[136.337,35.4054],[136.3409,35.4026],[136.3508,35.4003],[136.3567,35.4007],[136.3597,35.4047],[136.3596,35.4082],[136.362,35.4113],[136.3626,35.4166],[136.3603,35.4213],[136.3571,35.4245],[136.357,35.4298],[136.3587,35.4342],[136.355,35.4404],[136.3497,35.4469],[136.3504,35.4512],[136.3426,35.4614],[136.3441,35.464],[136.3393,35.4668],[136.3331,35.4687],[136.3329,35.4709],[136.3363,35.4736],[136.3384,35.4769],[136.3348,35.4825],[136.3371,35.4877],[136.3366,35.4937],[136.3374,35.4964],[136.3428,35.5032],[136.3437,35.5097],[136.3431,35.516],[136.3462,35.5178],[136.3477,35.5235],[136.3461,35.5287],[136.3459,35.5361],[136.3409,35.5373],[136.3395,35.5404],[136.34,35.5438],[136.3373,35.5503],[136.3298,35.551],[136.3255,35.5488],[136.3255,35.5457],[136.3221,35.5443],[136.3175,35.5474],[136.3174,35.5525],[136.3163,35.5559],[136.3189,35.5656],[136.3228,35.57],[136.3232,35.5746],[136.3221,35.5812],[136.3242,35.5851],[136.3223,35.5877],[136.3227,35.5932],[136.3217,35.5983],[136.3191,35.6038],[136.315,35.6057],[136.3205,35.6107],[136.3237,35.6165],[136.3156,35.6234],[136.3101,35.6233],[136.3065,35.6223],[136.2982,35.6175],[136.2945,35.6179],[136.2886,35.6206],[136.2872,35.6243],[136.2874,35.6279],[136.2838,35.6313],[136.2825,35.6345],[136.2792,35.6367],[136.2831,35.6437],[136.2816,35.6475],[136.2766,35.6515],[136.2771,35.6556],[136.2798,35.6583],[136.2805,35.6613],[136.2743,35.6653],[136.2718,35.6655],[136.2694,35.6687],[136.264,35.6711],[136.2575,35.6713],[136.2504,35.6762],[136.2446,35.6738],[136.2344,35.6825],[136.2311,35.6827],[136.2277,35.6805],[136.2235,35.6815],[136.2195,35.6844],[136.2163,35.6844],[136.2118,35.6824],[136.2105,35.6858],[136.208,35.6877],[136.2042,35.6868],[136.2015,35.6895],[136.1985,35.6896],[136.1955,35.6968],[136.1931,35.7008],[136.1853,35.7037],[136.1817,35.7019],[136.1784,35.7018],[136.1746,35.7037],[136.1716,35.7017],[136.1668,35.7022],[136.166,35.6973],[136.1614,35.6977],[136.1568,35.7004],[136.1514,35.6984],[136.1498,35.6954],[136.1503,35.6911],[136.1481,35.6873],[136.1435,35.683],[136.1423,35.679],[136.1396,35.678],[136.1345,35.6698],[136.1375,35.6651],[136.1478,35.6625],[136.1504,35.6589],[136.1501,35.6545],[136.1515,35.6483],[136.1554,35.6418],[136.1573,35.6413],[136.1598,35.635],[136.1599,35.6252],[136.1626,35.6239],[136.1643,35.62],[136.1669,35.6186],[136.1704,35.6124],[136.1708,35.6087],[136.1744,35.6036],[136.1775,35.595],[136.1732,35.5907],[136.1724,35.5883],[136.1665,35.5827],[136.1703,35.5711],[136.1669,35.5654],[136.1632,35.5711],[136.1576,35.5712],[136.1509,35.5729],[136.1496,35.5714],[136.1433,35.5711],[136.1417,35.5739],[136.1387,35.5757],[136.1328,35.5745],[136.1216,35.5762],[136.1168,35.5788],[136.1155,35.5829],[136.1122,35.5798],[136.1126,35.5734],[136.1089,35.5672],[136.1107,35.5633],[136.1101,35.5593],[136.1054,35.5554],[136.1091,35.5497],[136.1094,35.5451],[136.108,35.5401],[136.1061,35.5386],[136.1072,35.5304],[136.1056,35.5288]]]},"properties":{"N03_001":"滋賀県","N03_002":"","N03_003":"","N03_004":"長浜市","N03_007":"25203"}},
{"type":"Feature","geometry":{"type":"Polygon","coordinates":[[[135.9958,35.1902],[136.0011,35.1862],[136.0036,35.1546],[136.008,35.1409],[136.0171,35.1369],[136.0206,35.1376],[136.025,35.1359],[136.0271,35.1304],[136.0305,35.1298],[136.0288,35.1269],[136.0322,35.1246],[136.0305,35.1212],[136.0332,35.1144],[136.0428,35.1097],[136.0487,35.1104],[136.0573,35.1056],[136.0647,35.1051],[136.0665,35.1063],[136.0697,35.1013],[136.0696,35.0988],[136.078,35.092],[136.0816,35.0923],[136.0862,35.0952],[136.0872,35.0972],[136.094,35.0964],[136.099,35.097],[136.1032,35.0889],[136.1071,35.0918],[136.1102,35.0916],[136.1144,35.0876],[136.1189,35.0912],[136.1226,35.0916],[136.1287,35.087],[136.1292,35.0852],[136.1347,35.0838],[136.1339,35.0771],[136.1387,35.0739],[136.1458,35.0764],[136.141,35.0805],[136.1408,35.0852],[136.1359,35.0877],[136.1336,35.0904],[136.1255,35.0957],[136.1255,35.1025],[136.1296,35.105],[136.1334,35.1058],[136.1399,35.1047],[136.1396,35.1097],[136.15,35.1104],[136.154,35.1075],[136.16,35.1067],[136.1632,35.1049],[136.1643,35.1096],[136.1698,35.1109],[136.1687,35.1145],[136.1699,35.1182],[136.1735,35.1199],[136.1762,35.1231],[136.183,35.1256],[136.1818,35.1288],[136.1758,35.1305],[136.1719,35.1348],[136.1733,35.1378],[136.1718,35.141],[136.1683,35.1443],[136.162,35.1457],[136.1516,35.1531],[136.1466,35.1533],[136.1407,35.1551],[136.14,35.1608],[136.1305,35.1719],[136.1318,35.1752],[136.1297,35.1833],[136.1246,35.1824],[136.1234,35.187],[136.1124,35.1852],[136.1113,35.1899],[136.1059,35.189],[136.1041,35.1961],[136.1019,35.1989],[136.099,35.2082],[136.0995,35.2097],[136.0905,35.2217],[136.0852,35.2518],[136.0837,35.2589],[136.0789,35.2609],[136.0712,35.2595],[136.0269,35.2393],[136.0163,35.2313],[136.0108,35.2249],[135.9958,35.1902]]]},"properties":{"N03_001":"滋賀県","N03_002":"","N03_003":"","N03_004":"近江八幡市","N03_007":"25204"}},
{"type":"Feature","geometry":{"type":"Polygon","coordinates":[[[135.9232,35.0881],[135.9147,35.0794],[135.9115,35.0697],[135.8981,35.0527],[135.8922,35.0446],[135.888,35.0353],[135.8879,35.0324],[135.8912,35.0235],[135.8937,35.0224],[135.8982,35.0125],[135.9013,35.0024],[135.9006,34.9974],[135.9029,34.9924],[135.9088,34.9954],[135.9189,34.9963],[135.93,34.9942],[135.9303,34.9964],[135.9398,34.9924],[135.9397,34.9885],[135.9431,34.9864],[135.9465,34.981],[135.9501,34.9722],[135.9534,34.9717],[135.9549,34.9738],[135.9583,34.9725],[135.963,34.9764],[135.9654,34.9758],[135.967,34.9831],[135.9762,34.9849],[135.9792,34.9834],[135.9779,34.9801],[135.9873,34.9781],[135.9894,34.98],[135.9913,34.985],[135.9894,34.9872],[135.9904,34.9911],[135.9943,34.9888],[135.9992,34.9969],[135.9952,35.0015],[135.992,35.0033],[135.9901,35.008],[135.9862,35.0097],[135.9825,35.0089],[135.9705,35.0156],[135.9726,35.0184],[135.9684,35.0218],[135.9689,35.0257],[135.9725,35.0314],[135.961,35.0377],[135.965,35.0426],[135.9587,35.0458],[135.9586,35.0475],[135.9628,35.0507],[135.9644,35.053],[135.9581,35.0602],[135.9501,35.0615],[135.9482,35.0634],[135.9476,35.0683],[135.9444,35.0741],[135.9448,35.0775],[135.9409,35.0808],[135.9232,35.0881]]]},"properties":{"N03_001":"滋賀県","N03_002":"","N03_003":"","N03_004":"草津市","N03_007":"25206"}},
{"type":"Feature","geometry":{"type":"Polygon","coordinates":[[[135.9232,35.0881],[135.9409,35.0808],[135.9448,35.0775],[135.9444,35.0741],[135.9476,35.0683],[135.9482,35.0634],[135.9501,35.0615],[135.9581,35.0602],[135.9644,35.053],[135.9628,35.0507],[135.9748,35.0445],[135.976,35.046],[135.9822,35.0426],[135.9812,35.0413],[135.9867,35.0379],[135.9881,35.0397],[135.9949,35.0369],[136.0035,35.0477],[136.0072,35.0499],[136.0115,35.0476],[136.016,35.0507],[136.0077,35.0593],[136.0043,35.0587],[135.9969,35.063],[136.0016,35.0689],[136.0072,35.0702],[136.0097,35.0759],[136.0101,35.0816],[136.0087,35.0852],[136.0016,35.0904],[136.0037,35.0927],[136.0039,35.101],[136.0004,35.1066],[135.9997,35.1093],[135.9933,35.1121],[135.9941,35.1156],[135.9886,35.1202],[135.9813,35.1228],[135.9676,35.1309],[135.9593,35.1472],[135.9403,35.1375],[135.9384,35.1262],[135.9352,35.1212],[135.9356,35.1155],[135.9314,35.1095],[135.9232,35.0881]]]},"properties":{"N03_001":"滋賀県","N03_002":"","N03_003":"","N03_004":"守山市","N03_007":"25207"}},
{"type":"Feature","geometry":{"type":"Polygon","coordinates":[[[135.9894,34.98],[135.9988,34.9769],[136.0041,34.9801],[136.0079,34.9785],[136.0103,34.9755],[136.0116,34.97],[136.0139,34.9659],[136.014,34.9626],[136.0093,34.9631],[136.0058,34.9612],[136.001,34.9609],[136.0036,34.9568],[136.0101,34.9546],[136.0114,34.9511],[136.0169,34.9438],[136.0261,34.9417],[136.03,34.9397],[136.0377,34.943],[136.0411,34.9453],[136.0462,34.9465],[136.0451,34.9502],[136.0473,34.952],[136.0488,34.9584],[136.0513,34.9604],[136.0551,34.9604],[136.0612,34.9642],[136.0506,34.9769],[136.0489,34.9803],[136.0463,34.9812],[136.0426,34.9875],[136.0464,34.9948],[136.0453,34.9965],[136.0403,34.9966],[136.0373,35.005],[136.0396,35.0074],[136.0363,35.0119],[136.0375,35.0163],[136.0397,35.0184],[136.0366,35.0213],[136.0389,35.0262],[136.0307,35.0305],[136.027,35.0344],[136.016,35.0507],[136.0115,35.0476],[136.0072,35.0499],[136.0035,35.0477],[135.9949,35.0369],[135.9881,35.0397],[135.9867,35.0379],[135.9812,35.0413],[135.9822,35.0426],[135.976,35.046],[135.9748,35.0445],[135.9628,35.0507],[135.9586,35.0475],[135.9587,35.0458],[135.965,35.0426],[135.961,35.0377],[135.9725,35.0314],[135.9689,35.0257],[135.9684,35.0218],[135.9726,35.0184],[135.9705,35.0156],[135.9825,35.0089],[135.9862,35.0097],[135.9901,35.008],[135.992,35.0033],[135.9952,35.0015],[135.9992,34.9969],[135.9943,34.9888],[135.9904,34.9911],[135.9894,34.9872],[135.9913,34.985],[135.9894,34.98]]]},"properties":{"N03_001":"滋賀県","N03_002":"","N03_003":"","N03_004":"栗東市","N03_007":"25208"}},
{"type":"Feature","geometry":{"type":"Polygon","coordinates":[[[136.0411,34.9453],[136.0396,34.9423],[136.0331,34.9382],[136.0377,34.9334],[136.0424,34.9305],[136.0418,34.9235],[136.0384,34.9215],[136.0355,34.9239],[136.0234,34.9215],[136.0213,34.9176],[136.0155,34.9175],[136.0116,34.9202],[136.0028,34.9144],[135.9994,34.9093],[135.9927,34.9087],[135.9917,34.9009],[135.9869,34.8976],[135.9875,34.8898],[135.9806,34.8898],[135.9748,34.8885],[135.9747,34.8917],[135.9718,34.8937],[135.9675,34.8912],[135.9664,34.8831],[135.9643,34.88],[135.9554,34.8806],[135.9534,34.8787],[135.9496,34.8796],[135.9472,34.8777],[135.9432,34.8782],[135.9436,34.8728],[135.9414,34.8682],[135.941,34.8637],[135.947,34.8535],[135.9496,34.8516],[135.9571,34.8548],[135.9629,34.8531],[135.9627,34.8504],[135.9661,34.8495],[135.9671,34.8474],[135.9721,34.846],[135.9715,34.8385],[135.9778,34.8385],[135.9871,34.8408],[135.9916,34.8428],[135.9948,34.8423],[136.0008,34.8451],[136.0053,34.8431],[136.0026,34.8373],[136.0023,34.8328],[136.0054,34.8266],[136.0122,34.8252],[136.0155,34.8266],[136.0159,34.8288],[136.0217,34.8247],[136.0277,34.8218],[136.029,34.8174],[136.0274,34.8149],[136.0246,34.8148],[136.0205,34.8122],[136.0187,34.8127],[136.0151,34.8091],[136.0136,34.8049],[136.0103,34.7996],[136.0113,34.7958],[136.0157,34.7978],[136.0163,34.7947],[136.0198,34.7921],[136.0284,34.7907],[136.0347,34.7943],[136.0385,34.7939],[136.0412,34.7985],[136.0485,34.7997],[136.0516,34.7991],[136.0551,34.8021],[136.0637,34.8016],[136.0684,34.804],[136.073,34.8042],[136.0755,34.8079],[136.0818,34.8077],[136.0857,34.8109],[136.0906,34.8122],[136.0908,34.8158],[136.0952,34.8191],[136.0908,34.8248],[136.0876,34.8305],[136.0901,34.8333],[136.0862,34.8366],[136.0927,34.8372],[136.0951,34.8402],[136.1001,34.8391],[136.1044,34.8406],[136.1074,34.8452],[136.1083,34.8528],[136.1134,34.8561],[136.1174,34.8559],[136.121,34.8598],[136.1264,34.862],[136.1228,34.8663],[136.1259,34.87],[136.1221,34.8728],[136.1185,34.8707],[136.1158,34.872],[136.1132,34.8693],[136.0989,34.8706],[136.0958,34.8736],[136.093,34.8735],[136.087,34.8764],[136.0852,34.8788],[136.0896,34.8825],[136.0854,34.8868],[136.0862,34.8891],[136.0948,34.8878],[136.0984,34.8895],[136.1018,34.8961],[136.1063,34.9001],[136.1123,34.9019],[136.1155,34.8963],[136.1163,34.8922],[136.1204,34.8914],[136.1217,34.8879],[136.1255,34.8882],[136.128,34.885],[136.1315,34.8831],[136.1349,34.8848],[136.1364,34.8882],[136.1441,34.8854],[136.1485,34.882],[136.1536,34.8846],[136.1594,34.8848],[136.1598,34.8866],[136.1669,34.8879],[136.1808,34.8858],[136.1783,34.8826],[136.1822,34.8782],[136.1871,34.8784],[136.1905,34.8756],[136.1901,34.8733],[136.1946,34.8728],[136.1981,34.8699],[136.2091,34.8681],[136.212,34.866],[136.2168,34.8651],[136.2201,34.8634],[136.2236,34.8632],[136.2278,34.861],[136.2354,34.8615],[136.2373,34.8597],[136.2427,34.8596],[136.2507,34.8577],[136.2541,34.8583],[136.2581,34.8609],[136.2679,34.8645],[136.2689,34.8679],[136.276,34.8718],[136.2771,34.8742],[136.2824,34.8711],[136.2891,34.8696],[136.2971,34.8728],[136.2988,34.8754],[136.3023,34.8763],[136.305,34.8752],[136.3129,34.8806],[136.3132,34.887],[136.3191,34.8896],[136.3242,34.8899],[136.3263,34.8886],[136.3307,34.8924],[136.3354,34.8933],[136.3394,34.8955],[136.346,34.8947],[136.3503,34.899],[136.3574,34.9005],[136.3602,34.9041],[136.3661,34.905],[136.3652,34.9127],[136.3685,34.915],[136.3673,34.9166],[136.3678,34.9219],[136.3739,34.9238],[136.3719,34.9346],[136.3754,34.9399],[136.3727,34.9423],[136.3877,34.9531],[136.3948,34.9514],[136.3965,34.9574],[136.3996,34.9611],[136.3991,34.9631],[136.4034,34.9664],[136.4031,34.9692],[136.4074,34.9722],[136.4089,34.9751],[136.4135,34.9779],[136.4159,34.9808],[136.4151,34.9837],[136.4164,34.9921],[136.4135,34.9954],[136.4214,35.0001],[136.4201,35.0052],[136.417,35.0112],[136.4182,35.0181],[136.4136,35.0159],[136.4093,35.0155],[136.4046,35.0138],[136.399,35.0169],[136.3942,35.0182],[136.3879,35.0225],[136.3838,35.0205],[136.3834,35.0185],[136.3779,35.0172],[136.3751,35.0152],[136.3721,35.0164],[136.3639,35.0168],[136.3632,35.0219],[136.3549,35.0234],[136.3491,35.0194],[136.3425,35.0166],[136.3413,35.0142],[136.343,35.0103],[136.3454,35.0086],[136.3431,35.0018],[136.3436,34.9985],[136.3409,34.9893],[136.3387,34.9855],[136.335,34.983],[136.3296,34.9826],[136.3251,34.9784],[136.3206,34.9783],[136.3158,34.9826],[136.3071,34.9842],[136.3012,34.9836],[136.2985,34.9798],[136.2904,34.9737],[136.2867,34.9748],[136.2839,34.9733],[136.2843,34.9707],[136.2811,34.9681],[136.2751,34.9651],[136.2697,34.9614],[136.2652,34.9637],[136.2619,34.9615],[136.2557,34.9592],[136.2522,34.9567],[136.2471,34.9565],[136.238,34.9592],[136.2308,34.9643],[136.2305,34.9676],[136.2282,34.9704],[136.22,34.9687],[136.2185,34.9751],[136.2192,34.9803],[136.2154,34.9856],[136.2078,34.9853],[136.206,34.9889],[136.1997,34.9892],[136.2011,34.9924],[136.1925,34.9966],[136.1889,34.9975],[136.1828,35.0045],[136.1835,35.0092],[136.1818,35.0106],[136.1828,35.0139],[136.1807,35.0164],[136.1782,35.0202],[136.1715,35.02],[136.1698,35.0234],[136.1666,35.0254],[136.1652,35.0301],[136.1635,35.0306],[136.161,35.0268],[136.1609,35.0243],[136.1534,35.0193],[136.1422,35.025],[136.1413,35.0199],[136.1391,35.0179],[136.137,35.0136],[136.1394,35.0081],[136.1391,35.0029],[136.1277,34.9991],[136.1225,34.9956],[136.1274,34.989],[136.1244,34.9884],[136.1241,34.9838],[136.1279,34.9786],[136.1291,34.9732],[136.1317,34.968],[136.1294,34.9658],[136.132,34.9634],[136.1286,34.9612],[136.1256,34.961],[136.1233,34.9549],[136.1196,34.9546],[136.1164,34.9523],[136.1135,34.9476],[136.1048,34.9486],[136.1028,34.9519],[136.0947,34.9546],[136.0885,34.9543],[136.0796,34.9581],[136.0764,34.9625],[136.0717,34.9625],[136.0674,34.9642],[136.0649,34.9627],[136.0612,34.9642],[136.0551,34.9604],[136.0513,34.9604],[136.0488,34.9584],[136.0473,34.952],[136.0451,34.9502],[136.0462,34.9465],[136.0411,34.9453]]]},"properties":{"N03_001":"滋賀県","N03_002":"","N03_003":"","N03_004":"甲賀市","N03_007":"25209"}},
{"type":"Feature","geometry":{"type":"Polygon","coordinates":[[[135.9593,35.1472],[135.9676,35.1309],[135.9813,35.1228],[135.9886,35.1202],[135.9941,35.1156],[135.9933,35.1121],[135.9997,35.1093],[136.0004,35.1066],[136.0039,35.101],[136.0037,35.0927],[136.0016,35.0904],[136.0087,35.0852],[136.0101,35.0816],[136.0097,35.0759],[136.0072,35.0702],[136.0016,35.0689],[135.9969,35.063],[136.0043,35.0587],[136.0077,35.0593],[136.016,35.0507],[136.027,35.0344],[136.0307,35.0305],[136.0389,35.0262],[136.0412,35.0253],[136.045,35.0294],[136.0509,35.0325],[136.0524,35.0395],[136.0559,35.0448],[136.0546,35.0518],[136.0563,35.0567],[136.0658,35.0551],[136.0732,35.0523],[136.0734,35.0562],[136.0797,35.0608],[136.0786,35.062],[136.0788,35.0679],[136.0798,35.0717],[136.0784,35.0733],[136.0798,35.0774],[136.0791,35.0808],[136.0758,35.0834],[136.0781,35.0871],[136.0765,35.0894],[136.078,35.092],[136.0696,35.0988],[136.0697,35.1013],[136.0665,35.1063],[136.0647,35.1051],[136.0573,35.1056],[136.0487,35.1104],[136.0428,35.1097],[136.0332,35.1144],[136.0305,35.1212],[136.0322,35.1246],[136.0288,35.1269],[136.0305,35.1298],[136.0271,35.1304],[136.025,35.1359],[136.0206,35.1376],[136.0171,35.1369],[136.008,35.1409],[136.0036,35.1546],[136.0011,35.1862],[135.9958,35.1902],[135.9824,35.1866],[135.9726,35.181],[135.9593,35.1472]]]},"properties":{"N03_001":"滋賀県","N03_002":"","N03_003":"","N03_004":"野洲市","N03_007":"25210"}},
{"type":"Feature","geometry":{"type":"Polygon","coordinates":[[[136.0389,35.0262],[136.0366,35.0213],[136.0397,35.0184],[136.0375,35.0163],[136.0363,35.0119],[136.0396,35.0074],[136.0373,35.005],[136.0403,34.9966],[136.0453,34.9965],[136.0464,34.9948],[136.0426,34.9875],[136.0463,34.9812],[136.0489,34.9803],[136.0506,34.9769],[136.0612,34.9642],[136.0649,34.9627],[136.0674,34.9642],[136.0717,34.9625],[136.0764,34.9625],[136.0796,34.9581],[136.0885,34.9543],[136.0947,34.9546],[136.1028,34.9519],[136.1048,34.9486],[136.1135,34.9476],[136.1164,34.9523],[136.1196,34.9546],[136.1233,34.9549],[136.1256,34.961],[136.1286,34.9612],[136.132,34.9634],[136.1294,34.9658],[136.1317,34.968],[136.1291,34.9732],[136.1279,34.9786],[136.1241,34.9838],[136.1244,34.9884],[136.1274,34.989],[136.1225,34.9956],[136.1277,34.9991],[136.1391,35.0029],[136.1394,35.0081],[136.137,35.0136],[136.1391,35.0179],[136.1413,35.0199],[136.1422,35.025],[136.1372,35.0269],[136.1369,35.0305],[136.1321,35.0326],[136.1296,35.0354],[136.1234,35.0371],[136.1196,35.0352],[136.1236,35.025],[136.122,35.0216],[136.1198,35.0211],[136.1169,35.0271],[136.1127,35.0276],[136.1046,35.0246],[136.101,35.0216],[136.094,35.0244],[136.0909,35.029],[136.0866,35.03],[136.0863,35.0332],[136.0839,35.035],[136.084,35.0392],[136.0789,35.0459],[136.0789,35.0496],[136.0732,35.0523],[136.0658,35.0551],[136.0563,35.0567],[136.0546,35.0518],[136.0559,35.0448],[136.0524,35.0395],[136.0509,35.0325],[136.045,35.0294],[136.0412,35.0253],[136.0389,35.0262]]]},"properties":{"N03_001":"滋賀県","N03_002":"","N03_003":"","N03_004":"湖南市","N03_007":"25211"}},
{"type":"Feature","geometry":{"type":"Polygon","coordinates":[[[135.8608,35.283],[135.866,35.2802],[135.8697,35.282],[135.8742,35.2817],[135.8757,35.2831],[135.883,35.2846],[135.8875,35.2836],[135.8971,35.2782],[135.9061,35.2751],[135.9045,35.271],[135.9103,35.2641],[135.9171,35.264],[135.919,35.2606],[135.9253,35.2597],[135.9279,35.2583],[135.9322,35.261],[135.937,35.2605],[135.9406,35.2672],[135.9442,35.2671],[135.9487,35.2742],[135.955,35.2756],[135.9565,35.2776],[135.9618,35.2764],[135.9653,35.2747],[135.9718,35.2746],[135.9768,35.2723],[135.9835,35.2723],[135.988,35.267],[135.9911,35.2671],[135.9937,35.2644],[136.0163,35.2313],[136.0269,35.2393],[136.0712,35.2595],[136.0789,35.2609],[136.0837,35.2589],[136.1182,35.2556],[136.1222,35.2559],[136.1528,35.2687],[136.1458,35.3499],[136.1485,35.356],[136.1451,35.3576],[136.0983,35.3928],[136.0947,35.4101],[136.1164,35.4327],[136.1179,35.4381],[136.1158,35.4546],[136.1016,35.4606],[136.0943,35.4614],[136.0917,35.4653],[136.0954,35.4694],[136.0948,35.4733],[136.0971,35.4747],[136.0962,35.4784],[136.0996,35.48],[136.0995,35.4832],[136.1012,35.4903],[136.0999,35.4984],[136.0986,35.5001],[136.1013,35.5107],[136.1051,35.515],[136.1037,35.521],[136.1056,35.5288],[136.0974,35.5339],[136.0936,35.5373],[136.0901,35.5377],[136.0832,35.5406],[136.0805,35.5389],[136.0794,35.5357],[136.0767,35.5344],[136.077,35.5305],[136.0728,35.5289],[136.0692,35.5262],[136.0654,35.5282],[136.0624,35.5281],[136.0607,35.5319],[136.0578,35.5319],[136.0483,35.5345],[136.0464,35.5302],[136.0409,35.5322],[136.0283,35.5291],[136.0262,35.5269],[136.0288,35.5234],[136.0235,35.5192],[136.0201,35.5119],[136.016,35.5123],[136.0151,35.5087],[136.0117,35.5048],[136.0117,35.4976],[136.0067,35.4918],[135.9932,35.4916],[135.9895,35.4927],[135.981,35.4867],[135.9726,35.5001],[135.9672,35.503],[135.9626,35.5013],[135.9576,35.506],[135.9524,35.5062],[135.9518,35.5112],[135.947,35.5205],[135.9432,35.5213],[135.9396,35.5205],[135.9376,35.5138],[135.938,35.5112],[135.9353,35.5039],[135.9332,35.5023],[135.9298,35.492],[135.9248,35.49],[135.9223,35.4858],[135.9237,35.4817],[135.9217,35.4761],[135.9181,35.4738],[135.916,35.4706],[135.9173,35.4668],[135.9149,35.4591],[135.9156,35.4561],[135.9146,35.4519],[135.9125,35.4487],[135.9128,35.44],[135.9146,35.438],[135.9142,35.4321],[135.9081,35.4295],[135.9027,35.4294],[135.901,35.4258],[135.898,35.4242],[135.893,35.4198],[135.8935,35.4107],[135.8906,35.4032],[135.8803,35.4006],[135.8756,35.3974],[135.8645,35.3944],[135.8604,35.3953],[135.8543,35.4008],[135.8554,35.4095],[135.8526,35.4107],[135.846,35.4114],[135.8442,35.4131],[135.8384,35.4142],[135.8363,35.412],[135.832,35.4122],[135.8267,35.4147],[135.8192,35.4125],[135.8132,35.413],[135.8108,35.4095],[135.8106,35.4033],[135.8081,35.3952],[135.8101,35.3918],[135.8075,35.3854],[135.8052,35.3844],[135.7991,35.3849],[135.7952,35.3874],[135.7909,35.3866],[135.792,35.3811],[135.79,35.3784],[135.7839,35.377],[135.7791,35.3735],[135.7798,35.3719],[135.7777,35.3659],[135.7701,35.36],[135.7662,35.3485],[135.7641,35.3446],[135.7743,35.3428],[135.7808,35.3406],[135.7825,35.3384],[135.7857,35.3307],[135.79,35.3282],[135.7909,35.3238],[135.8036,35.3173],[135.8088,35.3169],[135.8112,35.3135],[135.8107,35.3083],[135.8144,35.3071],[135.8158,35.3031],[135.815,35.3013],[135.8197,35.2993],[135.8214,35.2968],[135.8201,35.2911],[135.8255,35.2835],[135.8296,35.2767],[135.8346,35.2741],[135.8401,35.2756],[135.8418,35.2781],[135.8479,35.2791],[135.8496,35.2803],[135.8517,35.286],[135.8551,35.2883],[135.8585,35.2871],[135.8608,35.283]]]},"properties":{"N03_001":"滋賀県","N03_002":"","N03_003":"","N03_004":"高島市","N03_007":"25212"}},
{"type":"Feature","geometry":{"type":"Polygon","coordinates":[[[136.0852,35.2518],[136.0905,35.2217],[136.0995,35.2097],[136.099,35.2082],[136.1019,35.1989],[136.1041,35.1961],[136.1059,35.189],[136.1113,35.1899],[136.1124,35.1852],[136.1234,35.187],[136.1246,35.1824],[136.1297,35.1833],[136.1318,35.1752],[136.1305,35.1719],[136.14,35.1608],[136.1407,35.1551],[136.1466,35.1533],[136.1516,35.1531],[136.162,35.1457],[136.1683,35.1443],[136.1718,35.141],[136.1733,35.1378],[136.1719,35.1348],[136.1758,35.1305],[136.1818,35.1288],[136.183,35.1256],[136.1762,35.1231],[136.1735,35.1199],[136.1699,35.1182],[136.1687,35.1145],[136.1698,35.1109],[136.1643,35.1096],[136.1632,35.1049],[136.16,35.1067],[136.154,35.1075],[136.15,35.1104],[136.1396,35.1097],[136.1399,35.1047],[136.1334,35.1058],[136.1296,35.105],[136.1255,35.1025],[136.1255,35.0957],[136.1336,35.0904],[136.1359,35.0877],[136.1408,35.0852],[136.141,35.0805],[136.1458,35.0764],[136.1495,35.0732],[136.1476,35.0701],[136.1495,35.0666],[136.1461,35.0619],[136.1531,35.0539],[136.1527,35.0512],[136.1493,35.05],[136.15,35.0454],[136.1565,35.0284],[136.1618,35.029],[136.1635,35.0306],[136.1652,35.0301],[136.1666,35.0254],[136.1698,35.0234],[136.1715,35.02],[136.1782,35.0202],[136.1807,35.0164],[136.1835,35.0195],[136.1842,35.025],[136.1884,35.0241],[136.1916,35.0247],[136.1967,35.0225],[136.2003,35.0242],[136.1991,35.027],[136.2069,35.0318],[136.2113,35.0329],[136.2174,35.0388],[136.2142,35.0413],[136.2165,35.0442],[136.2154,35.0516],[136.2167,35.0587],[136.2155,35.0598],[136.2208,35.0639],[136.2259,35.0655],[136.2339,35.0656],[136.2345,35.069],[136.2416,35.0691],[136.2436,35.0676],[136.249,35.0685],[136.2579,35.0646],[136.2602,35.0608],[136.2669,35.0578],[136.2708,35.0596],[136.2739,35.0629],[136.2755,35.058],[136.283,35.0575],[136.2909,35.0586],[136.2955,35.0574],[136.299,35.0528],[136.3024,35.0514],[136.3049,35.0469],[136.3075,35.0453],[136.3163,35.0435],[136.3175,35.0387],[136.3276,35.0361],[136.33,35.0328],[136.3347,35.0296],[136.335,35.0254],[136.3388,35.0233],[136.3394,35.0198],[136.3425,35.0166],[136.3491,35.0194],[136.3549,35.0234],[136.3632,35.0219],[136.3639,35.0168],[136.3721,35.0164],[136.3751,35.0152],[136.3779,35.0172],[136.3834,35.0185],[136.3838,35.0205],[136.3879,35.0225],[136.3942,35.0182],[136.399,35.0169],[136.4046,35.0138],[136.4093,35.0155],[136.4136,35.0159],[136.4182,35.0181],[136.4213,35.0213],[136.4214,35.0238],[136.4238,35.0298],[136.4188,35.0299],[136.4165,35.0373],[136.4178,35.0426],[136.4179,35.0495],[136.4222,35.0514],[136.4247,35.057],[136.4288,35.0564],[136.431,35.0592],[136.4416,35.0667],[136.4396,35.0724],[136.4404,35.0744],[136.4375,35.077],[136.4353,35.0825],[136.4421,35.0862],[136.4398,35.0904],[136.4387,35.0964],[136.4419,35.1016],[136.4408,35.1077],[136.4425,35.1109],[136.44,35.1166],[136.4445,35.119],[136.448,35.1238],[136.4447,35.1266],[136.4356,35.1307],[136.438,35.1366],[136.4429,35.1391],[136.444,35.1422],[136.4432,35.1452],[136.446,35.1499],[136.4504,35.1495],[136.455,35.1524],[136.4539,35.1579],[136.4547,35.1614],[136.4526,35.1658],[136.4485,35.1668],[136.4439,35.1717],[136.4398,35.1715],[136.4373,35.173],[136.4357,35.1765],[136.4299,35.1812],[136.4245,35.1845],[136.4194,35.1827],[136.4163,35.1851],[136.4087,35.1872],[136.4037,35.1875],[136.3957,35.1925],[136.3953,35.1938],[136.3891,35.1968],[136.3877,35.1909],[136.3836,35.1891],[136.3795,35.1894],[136.3765,35.186],[136.3745,35.177],[136.3759,35.1697],[136.3794,35.1657],[136.3804,35.1622],[136.3853,35.1596],[136.3864,35.1569],[136.3901,35.1554],[136.3914,35.1516],[136.3867,35.1447],[136.3844,35.1443],[136.3792,35.1403],[136.3719,35.139],[136.3688,35.1362],[136.3638,35.1349],[136.3592,35.1365],[136.3547,35.1311],[136.3476,35.133],[136.3431,35.1359],[136.3407,35.1361],[136.3387,35.1399],[136.3357,35.143],[136.3309,35.1429],[136.3263,35.1392],[136.3254,35.137],[136.3189,35.1386],[136.3216,35.1459],[136.3152,35.1512],[136.3127,35.1501],[136.3105,35.1532],[136.3077,35.1537],[136.3034,35.1577],[136.2963,35.1566],[136.2889,35.1532],[136.2817,35.1525],[136.2766,35.1539],[136.2733,35.1538],[136.2699,35.1557],[136.2636,35.1566],[136.2588,35.1592],[136.2535,35.1532],[136.2486,35.1548],[136.2468,35.151],[136.239,35.1547],[136.2397,35.1572],[136.2367,35.1587],[136.2295,35.158],[136.2282,35.1548],[136.2322,35.1517],[136.2309,35.1471],[136.227,35.1435],[136.2229,35.1446],[136.2169,35.1479],[136.2143,35.1448],[136.2122,35.148],[136.2043,35.148],[136.2044,35.1554],[136.2033,35.159],[136.1965,35.1708],[136.197,35.1769],[136.196,35.1846],[136.1916,35.1902],[136.1809,35.1935],[136.1757,35.1965],[136.167,35.2044],[136.1637,35.2056],[136.1542,35.2055],[136.1486,35.2066],[136.1397,35.2072],[136.136,35.2114],[136.1296,35.2131],[136.1213,35.2128],[136.1121,35.2164],[136.0852,35.2518]]]},"properties":{"N03_001":"滋賀県","N03_002":"","N03_003":"","N03_004":"東近江市","N03_007":"25213"}},
{"type":"Feature","geometry":{"type":"Polygon","coordinates":[[[136.2098,35.3387],[136.2133,35.3323],[136.216,35.3037],[136.2441,35.2956],[136.257,35.3004],[136.2606,35.2945],[136.265,35.2951],[136.2686,35.2942],[136.2699,35.2968],[136.2795,35.2963],[136.2862,35.2971],[136.2882,35.3016],[136.2915,35.2994],[136.3008,35.299],[136.3026,35.2958],[136.3054,35.2941],[136.3095,35.2944],[136.3137,35.293],[136.3174,35.2888],[136.3189,35.2809],[136.3232,35.2799],[136.3256,35.2839],[136.325,35.2881],[136.3285,35.2916],[136.3261,35.2957],[136.3303,35.2953],[136.3314,35.2918],[136.3359,35.29],[136.3402,35.2896],[136.3431,35.287],[136.3462,35.2863],[136.3515,35.2741],[136.3555,35.2748],[136.3577,35.2776],[136.3637,35.281],[136.3699,35.282],[136.3737,35.2862],[136.3777,35.2873],[136.381,35.2841],[136.3852,35.2868],[136.3917,35.2871],[136.3911,35.2902],[136.3961,35.2943],[136.3994,35.2994],[136.4031,35.3006],[136.4032,35.3034],[136.4068,35.3053],[136.4068,35.31],[136.4123,35.3156],[136.4121,35.3222],[136.4135,35.324],[136.4112,35.3279],[136.4153,35.3365],[136.4187,35.3406],[136.4192,35.3446],[136.4223,35.3484],[136.4214,35.3539],[136.4162,35.3547],[136.411,35.3522],[136.4096,35.3567],[136.4135,35.36],[136.4135,35.3644],[136.4119,35.3699],[136.4156,35.3736],[136.4212,35.3727],[136.4261,35.3733],[136.4369,35.3791],[136.4416,35.3844],[136.4441,35.3887],[136.4417,35.3906],[136.4409,35.3939],[136.4369,35.3953],[136.428,35.4008],[136.4243,35.4049],[136.4203,35.4129],[136.4118,35.4186],[136.4118,35.4224],[136.4189,35.4278],[136.4163,35.4302],[136.4157,35.4334],[136.4195,35.4354],[136.4231,35.4397],[136.4222,35.4426],[136.4262,35.4482],[136.4246,35.4533],[136.4215,35.4556],[136.4204,35.4662],[136.4189,35.4675],[136.4141,35.4666],[136.4119,35.4681],[136.4018,35.4699],[136.402,35.4735],[136.4,35.4757],[136.398,35.4809],[136.3928,35.4855],[136.3869,35.4884],[136.3878,35.4968],[136.3894,35.498],[136.3923,35.504],[136.3972,35.5097],[136.4023,35.5133],[136.4056,35.5134],[136.4025,35.519],[136.3993,35.5211],[136.4018,35.5258],[136.4004,35.5301],[136.3843,35.5331],[136.381,35.5377],[136.3801,35.541],[136.3803,35.5461],[136.3758,35.5512],[136.3736,35.5594],[136.3701,35.5588],[136.3656,35.5599],[136.3625,35.5585],[136.3611,35.5506],[136.3591,35.5488],[136.3586,35.5443],[136.3567,35.5399],[136.3459,35.5361],[136.3461,35.5287],[136.3477,35.5235],[136.3462,35.5178],[136.3431,35.516],[136.3437,35.5097],[136.3428,35.5032],[136.3374,35.4964],[136.3366,35.4937],[136.3371,35.4877],[136.3348,35.4825],[136.3384,35.4769],[136.3363,35.4736],[136.3329,35.4709],[136.3331,35.4687],[136.3393,35.4668],[136.3441,35.464],[136.3426,35.4614],[136.3504,35.4512],[136.3497,35.4469],[136.355,35.4404],[136.3587,35.4342],[136.357,35.4298],[136.3571,35.4245],[136.3603,35.4213],[136.3626,35.4166],[136.362,35.4113],[136.3596,35.4082],[136.3597,35.4047],[136.3567,35.4007],[136.3508,35.4003],[136.3409,35.4026],[136.337,35.4054],[136.3331,35.4038],[136.3321,35.3997],[136.3342,35.3926],[136.3357,35.3911],[136.3352,35.3858],[136.3375,35.3792],[136.3339,35.372],[136.3341,35.3677],[136.3293,35.365],[136.3283,35.3607],[136.3265,35.3592],[136.325,35.3471],[136.3218,35.3454],[136.3176,35.3459],[136.3167,35.3441],[136.3111,35.3426],[136.3102,35.3465],[136.3069,35.3488],[136.3058,35.3522],[136.2981,35.3503],[136.2964,35.3546],[136.2775,35.3508],[136.2504,35.3527],[136.243,35.3497],[136.2257,35.3479],[136.2098,35.3387]]]},"properties":{"N03_001":"滋賀県","N03_002":"","N03_003":"","N03_004":"米原市","N03_007":"25214"}},
{"type":"Feature","geometry":{"type":"Polygon","coordinates":[[[136.1807,35.0164],[136.1828,35.0139],[136.1818,35.0106],[136.1835,35.0092],[136.1828,35.0045],[136.1889,34.9975],[136.1925,34.9966],[136.2011,34.9924],[136.1997,34.9892],[136.206,34.9889],[136.2078,34.9853],[136.2154,34.9856],[136.2192,34.9803],[136.2185,34.9751],[136.22,34.9687],[136.2282,34.9704],[136.2305,34.9676],[136.2308,34.9643],[136.238,34.9592],[136.2471,34.9565],[136.2522,34.9567],[136.2557,34.9592],[136.2619,34.9615],[136.2652,34.9637],[136.2697,34.9614],[136.2751,34.9651],[136.2811,34.9681],[136.2843,34.9707],[136.2839,34.9733],[136.2867,34.9748],[136.2904,34.9737],[136.2985,34.9798],[136.3012,34.9836],[136.3071,34.9842],[136.3158,34.9826],[136.3206,34.9783],[136.3251,34.9784],[136.3296,34.9826],[136.335,34.983],[136.3387,34.9855],[136.3409,34.9893],[136.3436,34.9985],[136.3431,35.0018],[136.3454,35.0086],[136.343,35.0103],[136.3413,35.0142],[136.3425,35.0166],[136.3394,35.0198],[136.3388,35.0233],[136.335,35.0254],[136.3347,35.0296],[136.33,35.0328],[136.3276,35.0361],[136.3175,35.0387],[136.3163,35.0435],[136.3075,35.0453],[136.3049,35.0469],[136.3024,35.0514],[136.299,35.0528],[136.2955,35.0574],[136.2909,35.0586],[136.283,35.0575],[136.2755,35.058],[136.2739,35.0629],[136.2708,35.0596],[136.2669,35.0578],[136.2602,35.0608],[136.2579,35.0646],[136.249,35.0685],[136.2436,35.0676],[136.2416,35.0691],[136.2345,35.069],[136.2339,35.0656],[136.2259,35.0655],[136.2208,35.0639],[136.2155,35.0598],[136.2167,35.0587],[136.2154,35.0516],[136.2165,35.0442],[136.2142,35.0413],[136.2174,35.0388],[136.2113,35.0329],[136.2069,35.0318],[136.1991,35.027],[136.2003,35.0242],[136.1967,35.0225],[136.1916,35.0247],[136.1884,35.0241],[136.1842,35.025],[136.1835,35.0195],[136.1807,35.0164]]]},"properties":{"N03_001":"滋賀県","N03_002":"","N03_003":"蒲生郡","N03_004":"日野町","N03_007":"25383"}},
{"type":"Feature","geometry":{"type":"Polygon","coordinates":[[[136.0732,35.0523],[136.0789,35.0496],[136.0789,35.0459],[136.084,35.0392],[136.0839,35.035],[136.0863,35.0332],[136.0866,35.03],[136.0909,35.029],[136.094,35.0244],[136.101,35.0216],[136.1046,35.0246],[136.1127,35.0276],[136.1169,35.0271],[136.1198,35.0211],[136.122,35.0216],[136.1236,35.025],[136.1196,35.0352],[136.1234,35.0371],[136.1296,35.0354],[136.1321,35.0326],[136.1369,35.0305],[136.1372,35.0269],[136.1422,35.025],[136.1534,35.0193],[136.1609,35.0243],[136.161,35.0268],[136.1635,35.0306],[136.1618,35.029],[136.1565,35.0284],[136.15,35.0454],[136.1493,35.05],[136.1527,35.0512],[136.1531,35.0539],[136.1461,35.0619],[136.1495,35.0666],[136.1476,35.0701],[136.1495,35.0732],[136.1458,35.0764],[136.1387,35.0739],[136.1339,35.0771],[136.1347,35.0838],[136.1292,35.0852],[136.1287,35.087],[136.1226,35.0916],[136.1189,35.0912],[136.1144,35.0876],[136.1102,35.0916],[136.1071,35.0918],[136.1032,35.0889],[136.099,35.097],[136.094,35.0964],[136.0872,35.0972],[136.0862,35.0952],[136.0816,35.0923],[136.078,35.092],[136.0765,35.0894],[136.0781,35.0871],[136.0758,35.0834],[136.0791,35.0808],[136.0798,35.0774],[136.0784,35.0733],[136.0798,35.0717],[136.0788,35.0679],[136.0786,35.062],[136.0797,35.0608],[136.0734,35.0562],[136.0732,35.0523]]]},"properties":{"N03_001":"滋賀県","N03_002":"","N03_003":"蒲生郡","N03_004":"竜王町","N03_007":"25384"}},
{"type":"Feature","geometry":{"type":"Polygon","coordinates":[[[136.1916,35.1902],[136.196,35.1846],[136.197,35.1769],[136.1965,35.1708],[136.2033,35.159],[136.2044,35.1554],[136.2043,35.148],[136.2122,35.148],[136.2143,35.1448],[136.2169,35.1479],[136.2229,35.1446],[136.227,35.1435],[136.2309,35.1471],[136.2322,35.1517],[136.2282,35.1548],[136.2295,35.158],[136.2367,35.1587],[136.2397,35.1572],[136.239,35.1547],[136.2468,35.151],[136.2486,35.1548],[136.2535,35.1532],[136.2588,35.1592],[136.2636,35.1566],[136.2699,35.1557],[136.2733,35.1538],[136.2766,35.1539],[136.2817,35.1525],[136.2889,35.1532],[136.2963,35.1566],[136.3034,35.1577],[136.3077,35.1537],[136.3105,35.1532],[136.3127,35.1501],[136.3152,35.1512],[136.3216,35.1459],[136.3189,35.1386],[136.3254,35.137],[136.3263,35.1392],[136.3309,35.1429],[136.3357,35.143],[136.3345,35.148],[136.3269,35.1546],[136.3201,35.1544],[136.3108,35.1561],[136.3082,35.1613],[136.303,35.164],[136.3003,35.1666],[136.2967,35.1663],[136.2949,35.168],[136.2955,35.1725],[136.2933,35.1761],[136.293,35.1803],[136.2905,35.1826],[136.2847,35.1798],[136.2813,35.1805],[136.2772,35.1797],[136.2746,35.1832],[136.2702,35.1836],[136.2667,35.1857],[136.2562,35.1884],[136.2494,35.1906],[136.2451,35.1907],[136.2363,35.1928],[136.2311,35.1953],[136.2299,35.1923],[136.2323,35.1879],[136.2327,35.1844],[136.2372,35.1811],[136.2348,35.1763],[136.2308,35.1785],[136.2295,35.1769],[136.2251,35.179],[136.226,35.1817],[136.2245,35.1869],[136.2163,35.1905],[136.2161,35.1936],[136.2053,35.1991],[136.2004,35.1949],[136.1952,35.1986],[136.1916,35.1902]]]},"properties":{"N03_001":"滋賀県","N03_002":"","N03_003":"愛知郡","N03_004":"愛荘町","N03_007":"25425"}},
{"type":"Feature","geometry":{"type":"Polygon","coordinates":[[[136.2161,35.1936],[136.2163,35.1905],[136.2245,35.1869],[136.226,35.1817],[136.2251,35.179],[136.2295,35.1769],[136.2308,35.1785],[136.2348,35.1763],[136.2372,35.1811],[136.2327,35.1844],[136.2323,35.1879],[136.2299,35.1923],[136.2311,35.1953],[136.2363,35.1928],[136.2451,35.1907],[136.2494,35.1906],[136.2562,35.1884],[136.2562,35.1949],[136.2508,35.1963],[136.2486,35.1951],[136.2431,35.1975],[136.2443,35.2015],[136.242,35.2025],[136.245,35.2092],[136.2376,35.2128],[136.2258,35.2186],[136.2217,35.2133],[136.2239,35.2122],[136.2212,35.207],[136.2169,35.2029],[136.2169,35.2011],[136.2135,35.1971],[136.2161,35.1936]]]},"properties":{"N03_001":"滋賀県","N03_002":"","N03_003":"犬上郡","N03_004":"豊郷町","N03_007":"25441"}},
{"type":"Feature","geometry":{"type":"Polygon","coordinates":[[[136.2376,35.2128],[136.245,35.2092],[136.242,35.2025],[136.2443,35.2015],[136.2431,35.1975],[136.2486,35.1951],[136.2508,35.1963],[136.2562,35.1949],[136.2562,35.1884],[136.2667,35.1857],[136.2702,35.1836],[136.2746,35.1832],[136.2772,35.1797],[136.2813,35.1805],[136.2847,35.1798],[136.2905,35.1826],[136.2883,35.1899],[136.2905,35.191],[136.289,35.195],[136.2858,35.1976],[136.287,35.1995],[136.2787,35.2058],[136.273,35.2153],[136.2656,35.2224],[136.2577,35.2284],[136.2503,35.226],[136.253,35.2203],[136.2507,35.2171],[136.2467,35.2178],[136.2446,35.2155],[136.2413,35.2177],[136.2376,35.2128]]]},"properties":{"N03_001":"滋賀県","N03_002":"","N03_003":"犬上郡","N03_004":"甲良町","N03_007":"25442"}},
{"type":"Feature","geometry":{"type":"Polygon","coordinates":[[[136.2905,35.1826],[136.293,35.1803],[136.2933,35.1761],[136.2955,35.1725],[136.2949,35.168],[136.2967,35.1663],[136.3003,35.1666],[136.303,35.164],[136.3082,35.1613],[136.3108,35.1561],[136.3201,35.1544],[136.3269,35.1546],[136.3345,35.148],[136.3357,35.143],[136.3387,35.1399],[136.3407,35.1361],[136.3431,35.1359],[136.3476,35.133],[136.3547,35.1311],[136.3592,35.1365],[136.3638,35.1349],[136.3688,35.1362],[136.3719,35.139],[136.3792,35.1403],[136.3844,35.1443],[136.3867,35.1447],[136.3914,35.1516],[136.3901,35.1554],[136.3864,35.1569],[136.3853,35.1596],[136.3804,35.1622],[136.3794,35.1657],[136.3759,35.1697],[136.3745,35.177],[136.3765,35.186],[136.3795,35.1894],[136.3836,35.1891],[136.3877,35.1909],[136.3891,35.1968],[136.3953,35.1938],[136.3957,35.1925],[136.4037,35.1875],[136.4087,35.1872],[136.4127,35.1921],[136.4126,35.1959],[136.4161,35.2055],[136.4168,35.2144],[136.4157,35.2172],[136.4122,35.2184],[136.4083,35.2237],[136.3991,35.2261],[136.3987,35.228],[136.3938,35.2307],[136.3914,35.2344],[136.3857,35.2351],[136.3837,35.2395],[136.3797,35.2409],[136.3791,35.2474],[136.3892,35.2498],[136.394,35.2535],[136.3969,35.2579],[136.3935,35.2619],[136.3948,35.2671],[136.3945,35.271],[136.3959,35.2748],[136.3957,35.2809],[136.3917,35.2871],[136.3852,35.2868],[136.381,35.2841],[136.3777,35.2873],[136.3737,35.2862],[136.3699,35.282],[136.3637,35.281],[136.3577,35.2776],[136.3555,35.2748],[136.3515,35.2741],[136.3516,35.2696],[136.3454,35.2686],[136.3387,35.264],[136.3353,35.2651],[136.3295,35.2653],[136.3253,35.2673],[136.3211,35.2677],[136.3166,35.2656],[136.3076,35.2576],[136.3006,35.2572],[136.2968,35.2532],[136.2969,35.2491],[136.2945,35.2466],[136.289,35.244],[136.2881,35.2415],[136.2817,35.2404],[136.2794,35.2424],[136.2768,35.2395],[136.2746,35.2403],[136.2699,35.2326],[136.275,35.2295],[136.2722,35.226],[136.2673,35.2275],[136.2615,35.2305],[136.2577,35.2284],[136.2656,35.2224],[136.273,35.2153],[136.2787,35.2058],[136.287,35.1995],[136.2858,35.1976],[136.289,35.195],[136.2905,35.191],[136.2883,35.1899],[136.2905,35.1826]]]},"properties":{"N03_001":"滋賀県","N03_002":"","N03_003":"犬上郡","N03_004":"多賀町","N03_007":"25443"}}
]}